index,address,city,region,postalcode,lat,lng
35,230 Calle Federico Costa,San Juan,PR,918,18.42491,-66.07171
36,60 Ave Rio Hondo,Bayamon,PR,961,18.42205,-66.16304
37,Ave Fragoso Villa Fontana,Carolina,PR,983,18.39141,-65.97489
38,50 Holyoke St,Holyoke,MA,1040,42.16931,-72.64198
39,33 Orchard Hill Park Dr,Leominster,MA,1453,42.52481,-71.7124
40,70 Worcester Providence Tpke,Millbury,MA,1527,42.19513,-71.77617
41,7 Neponset St,Worcester,MA,1606,42.29766,-71.80126
42,1 Worcester Rd,Framingham,MA,1701,42.3007,-71.39618
43,769 Donald Lynch Blvd,Marlborough,MA,1752,42.35141,-71.61902
44,208 Fortune Blvd,Milford,MA,1757,42.16256,-71.50184
45,84 Middlesex Tpke,Burlington,MA,1803,42.47698,-71.21574
46,1201 Broadway,Saugus,MA,1906,42.46081,-71.02633
47,230 Independence Way,Danvers,MA,1923,42.55285,-70.93768
48,700 Providence Hwy,Dedham,MA,2026,42.24028,-71.17613
49,280 School St,Mansfield,MA,2048,42.01288,-71.2264
50,14 Allstate Rd,Dorchester,MA,2125,42.32793,-71.06098
51,1 Harborside Dr,Boston,MA,2128,42.366955,-71.027646
52,1 Harborside Dr,Boston,MA,2128,42.366955,-71.027646
53,100 Cambridgeside Pl,Cambridge,MA,2141,42.36743,-71.07724
54,162 Santilli Hwy,Everett,MA,2149,42.40341,-71.06817
55,550 Grossman Dr,Braintree,MA,2184,42.21697,-70.99937
56,200 Westgate Dr,Brockton,MA,2301,42.0945,-71.05293
57,228 Colony Place Rd,Plymouth,MA,2360,41.95184,-70.71687
58,550 Arsenal St,Watertown,MA,2472,42.3635,-71.15898
59,793 Iyannough Rd,Hyannis,MA,2601,41.66823,-70.29916
60,27 Faunce Corner Rd,North Dartmouth,MA,2747,41.64314,-70.98644
61,1337 S Washington St,North Attleboro,MA,2760,41.93542,-71.35265
62,41 Commerce Way,Seekonk,MA,2771,41.79345,-71.32187
63,24 Universal Blvd,Warwick,RI,2886,41.70134,-71.49602
64,2000 Post Rd,Warwick,RI,2886,41.72716923,-71.43861473
65,2000 Post Rd,Warwick,RI,2886,41.72716923,-71.43861473
66,220 Daniel Webster Hwy,Nashua,NH,3060,42.71329,-71.44138
67,290 S Broadway,Salem,NH,3079,42.75865,-71.21384
68,1500 S Willow St,Manchester,NH,3103,42.95693,-71.43094
69,78 Damante Dr,Concord,NH,3301,43.21849,-71.48579
70,274 Plainfield Rd,West Lebanon,NH,3784,43.62601,-72.32546
71,45 Gosling Rd,Newington,NH,3801,43.09463,-70.79889
72,1001 Westbrook St,Portland,ME,4102,43.65066245,-70.30973263
73,364 Maine Mall Rd,South Portland,ME,4106,43.63429,-70.33656
74,14 Crossing Way,Augusta,ME,4330,44.30895,-69.80696
75,45 Bangor Mall Blvd,Bangor,ME,4401,44.8368,-68.74571
76,1200 Airport Dr,S Burlington,VT,5403,44.46836069,-73.15648846
77,26 Cypress St,Williston,VT,5495,44.44466,-73.10967
78,120 Slater St,Manchester,CT,6042,41.80726,-72.5353
79,95 Elm St,Enfield,CT,6082,41.99996,-72.58431
80,44A Albany Tpke,West Simsbury,CT,6092,41.81936,-72.86954
81,1501 New Britain Ave,West Hartford,CT,6110,41.72321,-72.75882
82,3377 Berlin Tpke,Newington,CT,6111,41.65577,-72.72641
83,913 Hartford Tpke,Waterford,CT,6385,41.38155,-72.15209
84,470 Lewis Ave,Meriden,CT,6451,41.55098,-72.80943
85,I95 Northbound Past Exit 40,Milford,CT,6460,41.23400048,-73.0313715
86,398 Universal Dr N,North Haven,CT,6473,41.35479,-72.8739
87,53 Boston Post Rd,Orange,CT,6477,41.27969,-72.98848
88,100 Hawley Ln,Trumbull,CT,6611,41.23267,-73.15244
89,2 International Dr,Danbury,CT,6810,41.41726,-73.4181
90,330 Connecticut Ave,Norwalk,CT,6854,41.10354,-73.43846
91,1339 N Broad St,Bloomfield,NJ,7003,40.69609925,-74.21598047
92,2391 US Highway 22 W,Union,NJ,7083,40.69128,-74.2962
93,2255 Springfield Ave,Vauxhall,NJ,7088,40.71636,-74.28626
94,925 Patterson Plank Rd,Secaucus,NJ,7094,40.78131,-74.04517
95,Newark Liberty Intl Airport,Newark,NJ,7114,40.69276047,-74.18506622
96,10 Toler Pl,Newark,NJ,7114,40.710061,-74.190542
97,Newark Liberty Intl Aprt Trm 3,Newark,NJ,7114,40.69276047,-74.18506622
98,125 18th St,Jersey City,NJ,7310,40.73188,-74.03814
99,30 Andrews Dr,Woodland Park,NJ,7424,40.88746,-74.21298
100,48 State Rt 23,Riverdale,NJ,7457,40.99215,-74.31216
101,Route 17 N,Paramus,NJ,7652,40.96613,-74.07558
102,2400 Bergen Town Ctr,Paramus,NJ,7652,40.91318,-74.05287
103,50 State Route 36,Eatontown,NJ,7724,40.2896,-74.04857
104,15 US Highway 9,Manalapan,NJ,7726,40.28863,-74.29731
105,2130 State Route 35,Holmdel,NJ,7733,40.41039,-74.14365
106,345 Mount Hope Ave,Rockaway,NJ,7866,40.90354,-74.55018
107,410 State Route 10,East Hanover,NJ,7936,40.80272,-74.36048
108,2130 Route 70 W,Cherry Hill,NJ,8002,39.92327,-75.03603
109,215 Stafford Park Blvd,Manahawkin,NJ,8050,39.70953,-74.28473
110,1420 Nixon Dr,Mount Laurel,NJ,8054,39.94044,-74.95822
111,1851 Deptford Center Rd,Deptford,NJ,8096,39.82794,-75.09283
112,101 Atlantic City Intl Airport,Egg Harbor Township,NJ,8234,39.40839,-74.543076
113,100 Consumer Sq,Mays Landing,NJ,8330,39.45413,-74.63011
114,3849 S Delsea Dr,Vineland,NJ,8360,39.43007,-75.03932
115,2831 Boardwalk,Atlantic City,NJ,8401,39.35306,-74.444879
116,2100 Pacific Ave,Atlantic City,NJ,8401,39.356966,-74.436027
117,777 Harrahs Blvd,Atlantic City,NJ,8401,39.38402295,-74.42669682
118,1900 Pacific Ave,Atlantic City,NJ,8401,39.357292,-74.433624
119,251 Nassau Park Blvd,Princeton,NJ,8540,40.30301,-74.67942
120,51 Chambersbridge Rd,Brick,NJ,8723,40.06095,-74.13855
121,300 Commons Way,Bridgewater,NJ,8807,40.59094,-74.62142
122,300 State Route 18,East Brunswick,NJ,8816,40.45593,-74.39452
123,675 US Highway 1 S,Iselin,NJ,8830,40.55978,-74.30771
124,300 Ridge Rd,Piscataway,NJ,8854,40.3723,-74.4853
125,1202 New Brunswick Ave,Phillipsburg,NJ,8865,40.67463,-75.13525
126,52 E 14th St,New York,NY,10003,40.73419,-73.99015
127,60 W 23rd St,New York,NY,10010,40.74264,-73.9927
128,622 Broadway,New York,NY,10012,40.72578,-73.9961
129,529 5th Ave,New York,NY,10017,40.75418,-73.97993
130,1880 Broadway,New York,NY,10023,40.77024,-73.98172
131,1280 Lexington Ave,New York,NY,10028,40.77974,-73.95566
132,2795 Richmond Ave,Staten Island,NY,10314,40.57675,-74.16736
133,610 Exterior St,Bronx,NY,10451,40.82173,-73.92997
134,402 E Fordham Rd,Bronx,NY,10458,40.86136,-73.89141
135,299 N Central Ave,Hartsdale,NY,10530,41.02699,-73.79254
136,3105 E Main St,Mohegan Lake,NY,10547,41.31083,-73.87128
137,555 E Sandford Blvd,Mount Vernon,NY,10550,40.90204,-73.81959
138,2478 Central Park Ave,Yonkers,NY,10710,40.9814,-73.8277
139,1100 N Galleria Dr,Middletown,NY,10941,41.45545,-74.37262
140,128 Bailey Farm Rd,Monroe,NY,10950,41.31601,-74.15185
141,1240 Palisades Center Dr,West Nyack,NY,10994,41.09808,-73.9578
142,5001 Northern Blvd,Long Island City,NY,11101,40.7536,-73.91196
143,8923 Bay Pkwy,Brooklyn,NY,11214,40.59367,-73.99899
144,625 Atlantic Ave,Brooklyn,NY,11217,40.68345,-73.97417
145,5102 Avenue U,Brooklyn,NY,11234,40.60988,-73.9217
146,369 Gateway Dr,Brooklyn,NY,11239,40.65156,-73.87267
147,13107 40th Rd,Flushing,NY,11354,40.75662,-73.83698
148,Laguardia Intl Airport,Flushing,NY,11369,40.764919,-73.872784
149,Laguardia Intl Airport,Flushing,NY,11369,40.764919,-73.872784
150,Laguarida Airport,Flushing,NY,11371,40.77307892,-73.87563324
151,8801 Queens Blvd,Elmhurst,NY,11373,40.73541,-73.87445
152,John F Kennedy Intl Airport,Jamaica,NY,11430,40.64364597,-73.79009195
153,John F Kennedy Intl Airport,Jamaica,NY,11430,40.64364597,-73.79009195
154,JFK International Airport,Jamaica,NY,11430,40.64364597,-73.79009195
155,JFK International Airport,Jamaica,NY,11430,40.64364597,-73.79009195
156,JFK International Airport,Jamaica,NY,11430,40.64364597,-73.79009195
157,JFK Intl Airport Terminal 5,Jamaica,NY,11430,40.64364597,-73.79009195
158,10 N Service Rd,Jamaica,NY,11430,40.79787366,-73.50369036
159,660 Sunrise Hwy,Baldwin,NY,11510,40.65588,-73.61252
160,6 West Circle Dr,Valley Stream,NY,11581,40.664,-73.72411
161,1100 Old Country Rd,Westbury,NY,11590,40.74432,-73.60206
162,1851 Sunrise Hwy,Bay Shore,NY,11706,40.74104,-73.23717
163,261 Pond Path,South Setauket,NY,11720,40.88422,-73.09929
164,3124 Jericho Tpke,East Northport,NY,11731,40.83832,-73.31902
165,148 Walt Whitman Rd,Huntington Station,NY,11746,40.82548,-73.41137
166,3601 Hempstead Tpke,Levittown,NY,11756,40.72741,-73.50096
167,499 N Service Rd,Patchogue,NY,11772,40.7775,-73.03648
168,1440 Old Country Rd,Riverhead,NY,11901,40.92756,-72.69209
169,1 Crossgates Mall Rd,Albany,NY,12203,42.68998,-73.85028
170,1300 Ulster Ave,Kingston,NY,12401,41.96785,-73.98543
171,2001 South Rd,Poughkeepsie,NY,12601,41.62445,-73.92017
172,3062 Route 50,Saratoga Springs,NY,12866,43.10595,-73.74177
173,60 Smithfield Blvd,Plattsburgh,NY,12901,44.70297,-73.49246
174,9090 Destiny USA Dr,Syracuse,NY,13204,43.07071,-76.17363
175,3401 Erie Blvd E,Dewitt,NY,13214,43.04749,-76.06743
176,4725 Commercial Dr,New Hartford,NY,13413,43.09282,-75.30879
177,21085 Salmon Run Mall Loop W,Watertown,NY,13601,43.9789,-75.9515
178,3209 Vestal Pkwy E,Vestal,NY,13850,42.09699,-75.99727
179,3701 McKinley Pkwy,Buffalo,NY,14219,42.78535,-78.80852
180,4401 Transit Rd,Buffalo,NY,14221,42.96759,-78.69401
181,1 Galleria Dr,Cheektowaga,NY,14225,42.91436,-78.7611
182,4200 Genesee St,Cheektowaga,NY,14225,42.93233603,-78.72763909
183,1585 Niagara Falls Blvd,Amherst,NY,14228,42.99809,-78.81563
184,7550 Commons Blvd,Victor,NY,14564,43.03386,-77.44925
185,2345 Marketplace Dr,Rochester,NY,14623,43.07927,-77.63284
186,1200 Brooks Ave,Rochester,NY,14624,43.13076317,-77.66866542
187,2833 W Ridge Rd,Rochester,NY,14626,43.20895,-77.70661
188,40 Catherwood Rd,Ithaca,NY,14850,42.48215,-76.49118
189,950 County Road 64,Elmira,NY,14903,42.15318,-76.87142
190,111 MCMILLEN AVE,BEAVER FALLS,PA,15010,40.770754,-80.372858
191,5000 Alicia Dr,Bethel Park,PA,15102,40.34646,-80.04468
192,680 Waterfront Dr E,Munhall,PA,15120,40.41247,-79.90323
193,200 Mall Circle Dr,Monroeville,PA,15146,40.4312,-79.7999
194,3247 E CARSON ST,PITTSBURGH,PA,15203,40.423218,-79.959917
195,6513 STEUBENVILLE PIKE,PITTSBURGH,PA,15205,40.450157,-80.112765
196,1000 Airport Blvd,Pittsburgh,PA,15231,40.495866,-80.256136
197,1000 Airport Blvd,Pittsburgh,PA,15231,40.495866,-80.256136
198,473 Clairton Blvd,Pittsburgh,PA,15236,40.33486,-79.94469
199,4801 McKnight Rd,Pittsburgh,PA,15237,40.52348,-80.0068
200,430 Home Dr,Pittsburgh,PA,15275,40.45265,-80.18156
201,125 Donohoe Rd,Greensburg,PA,15601,40.30491,-79.50947
202,430 Town Centre Dr,Johnstown,PA,15904,40.27781,-78.84265
203,1000 Cranberry Square Dr,Cranberry Township,PA,16066,40.69121,-80.1047
204,6650 Peach St,Erie,PA,16509,42.05709,-80.0922
205,1721 Osgood Dr,Altoona,PA,16602,40.49181,-78.38342
206,1650 N Atherton St,State College,PA,16803,40.80682,-77.89483
207,6416 Carlisle Pike,Mechanicsburg,PA,17050,40.24764,-77.00646
208,1 Terminal Dr,Middletown,PA,17057,40.195738,-76.756521
209,5000 Jonestown Rd,Harrisburg,PA,17112,40.30798,-76.80582
210,2865 Concord Rd,York,PA,17402,39.98488,-76.67117
211,1700 Fruitville Pike,Lancaster,PA,17601,40.06723,-76.315747
212,115 Lycoming Mall Cir,Muncy,PA,17756,41.24541,-76.83197
213,110 Marketplace Blvd,Selinsgrove,PA,17870,40.84081,-76.8315
214,77 Sands Blvd,Bethlehem,PA,18015,40.613941,-75.358903
215,4413 Birkland Pl,Easton,PA,18045,40.65766,-75.2858
216,1504 Macarthur Rd,Whitehall,PA,18052,40.62845,-75.48551
217,300 Shoppes Stroud,Stroudsburg,PA,18360,40.98911,-75.23324
218,959 Viewmont Dr,Dickson City,PA,18519,41.4553,-75.65106
219,449 Arena Hub Plz,Wilkes Barre,PA,18702,41.23896,-75.84081
220,646 N West End Blvd,Quakertown,PA,18951,40.46087,-75.37182
221,310 Commerce Blvd,Fairless Hills,PA,19030,40.18847,-74.86542
222,642 Baltimore Pike,Springfield,PA,19064,39.92008,-75.32778
223,1130 Easton Rd,Willow Grove,PA,19090,40.15733,-75.12466
224,9733 Roosevelt Blvd,Philadelphia,PA,19114,40.082357,-75.026677
225,2300 S Christopher Columbus Bl,Philadelphia,PA,19148,39.91565,-75.13889
226,8000 Essington Ave,Philadelphia,PA,19153,39.894994,-75.229085
227,10 Quarry Rd,Downingtown,PA,19335,40.01888,-75.67585
228,310 Goddard Blvd,King Of Prussia,PA,19406,40.0927,-75.39568
229,400 Front St,Collegeville,PA,19426,40.16357,-75.48094
230,801 Bethlehem Pike,North Wales,PA,19454,40.2376,-75.23856
231,2010 Chemical Rd,Plymouth Meeting,PA,19462,40.10288,-75.29518
232,200 Upland Sq Dr,Pottstown,PA,19464,40.26474,-75.65323
233,1701 Crossing Dr,Wyomissing,PA,19610,40.3482,-75.96624
234,2700 Fashion Center Blvd,Newark,DE,19702,39.67262797,-75.64898349
235,4807 Concord Pike,Wilmington,DE,19803,39.82647,-75.54269
236,1165 N Dupont Hwy,Dover,DE,19901,39.18922,-75.53799
237,901 MASSACHUSETTS AVE NW,WASHINGTON,DC,20001,38.903442,-77.02421
238,50 Massachusetts NE,Washington,DC,20002,38.89689624,-77.00654536
239,3100 14th St NW,Washington,DC,20010,38.92903,-77.03415
240,7665 Sudley Rd,Manassas,VA,20109,38.79072,-77.51333
241,13093 Gateway Center Dr,Gainesville,VA,20155,38.7939,-77.60362
242,45575 Dulles Eastern Plz,Sterling,VA,20166,39.02328,-77.42217
243,609 Potomac Station Dr,Leesburg,VA,20176,39.09757,-77.52822
244,1861 Fountain Dr,Reston,VA,20190,38.96173,-77.35572
245,11725 Berry Rd,Waldorf,MD,20603,38.62682,-76.91233
246,45235 Worth Ave,California,MD,20619,38.2968,-76.51028
247,2300 Petrie Ln,Lanham,MD,20706,38.92193,-76.84587
248,14160 Baltimore Ave,Laurel,MD,20707,39.08459,-76.86461
249,15800 Collington Rd,Bowie,MD,20716,38.94518,-76.73065
250,4710 Cherry Hill Rd,College Park,MD,20740,39.01694,-76.92951
251,1200 Rockville Pike,Rockville,MD,20852,39.06994,-77.13014
252,20914 Frederick Rd,Germantown,MD,20876,39.2,-77.25166
253,15750 Shady Grove Rd,Gaithersburg,MD,20877,39.11612,-77.18684
254,10901 Georgia Ave,Wheaton,MD,20902,39.03454,-77.04863
255,602 Boulton St,Bel Air,MD,21014,39.52858,-76.35952
256,6722 Ritchie Hwy,Glen Burnie,MD,21061,39.19076,-76.6154
257,8251 Gateway Overlook Dr,Elkridge,MD,21075,39.18456,-76.79364
258,7000 Arundel Mills Cir,Hanover,MD,21076,39.15473,-76.72428
259,1717 York Rd,Timonium,MD,21093,39.42801,-76.61869
260,160 W RIDGELY RD,LUTHERVILLE TIMONIUM,MD,21093,39.429581,-76.626196
261,10400 Owings Mills Blvd,Owings Mills,MD,21117,39.41976,-76.77919
262,7550 Perryman Ct,Curtis Bay,MD,21226,39.1762,-76.54946
263,5200 Campbell Blvd,Nottingham,MD,21236,39.37275,-76.45415
264,7426 New Ridge Rd,Baltimore,MD,21240,39.17658234,-76.67123413
265,2643 Housley Rd,Annapolis,MD,21401,38.98602,-76.55493
266,7300 Guilford Dr,Frederick,MD,21704,39.39725,-77.41602
267,18053 Garland Groh Blvd,Hagerstown,MD,21740,39.66082,-77.744
268,109 E North Pointe Dr,Salisbury,MD,21804,38.41724,-75.56405
269,9652 Main St,Fairfax,VA,22031,38.84353,-77.27589
270,13058 Fairlakes Shopping Ctr,Fairfax,VA,22033,38.85716,-77.39622
271,5799 Leesburg Pike,Falls Church,VA,22041,38.8505,-77.13119
272,6555 Frontier Dr,Springfield,VA,22150,38.77423,-77.16965
273,8449 Leesburg Pike,Vienna,VA,22182,38.92427,-77.23953
274,2730 Prince William Pkwy,Woodbridge,VA,22192,38.65217,-77.29523
275,1201 S Hayes St,Arlington,VA,22202,38.86147,-77.05831
276,3401 Jefferson Davis Hwy,Alexandria,VA,22305,38.83608,-77.04947
277,1541 Carl D Silver Pkwy,Fredericksburg,VA,22401,38.30296,-77.50473
278,1455 Stafford Market Pl,Stafford,VA,22556,38.47147,-77.41201
279,601 East Jubal Early Dr,Winchester,VA,22601,39.16421,-78.16511
280,259 Burgess Rd,Harrisonburg,VA,22801,38.43291,-78.85294
281,1615 Emmet St N,Charlottesville,VA,22901,38.05844,-78.49666
282,9901 Brook Rd,Glen Allen,VA,23059,37.66922,-77.46003
283,11200 W Broad St,Glen Allen,VA,23060,37.65084,-77.60086
284,7297 Battle Hill Dr,Mechanicsville,VA,23111,37.6077,-77.35643
285,4931 Commonwealth Centre Pkwy,Midlothian,VA,23112,37.42042,-77.6294
286,210 Whittakers Trace,Williamsburg,VA,23185,37.25769,-76.64194
287,1560 W Koger Center Blvd,Richmond,VA,23235,37.51277,-77.61277
288,1340 Greenbrier Pkwy,Chesapeake,VA,23320,36.77363,-76.23088
289,4107 Portsmouth Blvd,Chesapeake,VA,23321,36.82167,-76.40955
290,3334 Princess Anne Rd,Virginia Beach,VA,23456,36.77376,-76.08708
291,217 Independence Blvd,Virginia Beach,VA,23462,36.83632,-76.13867
292,12151 Jefferson Ave,Newport News,VA,23602,37.10817,-76.49869
293,723 Southpark Blvd,Colonial Heights,VA,23834,37.25021,-77.38666
294,4707 Valley View Blvd NW,Roanoke,VA,24012,37.29925,-79.95955
295,105 Shoppers Way,Christiansburg,VA,24073,37.16721,-80.424
296,16680 Highlands Center Dr,Bristol,VA,24202,36.63741,-82.10708
297,4024 Wards Rd,Lynchburg,VA,24502,37.34923,-79.18898
298,39 RHL Blvd,Charleston,WV,25309,38.33651,-81.71148
299,276 Retail Commons Pkwy,Martinsburg,WV,25403,39.4398,-77.99285
300,6 Mall Rd,Barboursville,WV,25504,38.41876,-82.26338
301,150 Satterfield Dr,Triadelphia,WV,26059,40.05771,-80.59853
302,3294 University Town Centre Dr,Morgantown,WV,26501,39.65089,-80.00518
303,1980 Griffith Rd,Winston-Salem,NC,27103,36.06472,-80.3084
304,1465 University Dr,Burlington,NC,27215,36.06551,-79.52172
305,1701 S 40 Dr,Greensboro,NC,27407,36.05396,-79.8894
306,237 Crossroads Blvd,Cary,NC,27518,35.76232,-78.73976
307,120 Shenstone Ln,Garner,NC,27529,35.69545,-78.58364
308,214 Hinton Oaks Blvd,Knightdale,NC,27545,35.79639,-78.51278
309,2600 West Terminal Blvd,Morrisville,NC,27560,35.87455027,-78.79025728
310,4325 Glenwood Ave,Raleigh,NC,27612,35.8377,-78.67622
311,5220 Capital Blvd,Raleigh,NC,27616,35.857075,-78.579842
312,6280 Capital Blvd,Raleigh,NC,27616,35.87053835,-78.58054139
313,7980 Skyland Ridge Pkwy,Raleigh,NC,27617,35.91496,-78.78379
314,5454 New Hope Commons Dr,Durham,NC,27707,35.95351,-78.99887
315,7001 Fayetteville Rd,Durham,NC,27713,35.90191,-78.9367
316,3140 Evans St,Greenville,NC,27834,35.57451,-77.3848
317,3401 Raleigh Road Pkwy W,Wilson,NC,27896,35.74426,-77.96528
318,6390 Bayfield Pkwy,Concord,NC,28027,35.41438,-80.67905
319,8210 Concord Mills Blvd,Concord,NC,28027,35.36842,-80.71896
320,3054 E Franklin Blvd,Gastonia,NC,28056,35.26007,-81.12223
321,2109 Matthews Township Pkwy,Matthews,NC,28105,35.12731,-80.70466
322,633 River Hwy,Mooresville,NC,28117,35.59379,-80.87539
323,10600 Centrum Pkwy,Pineville,NC,28134,35.08902,-80.87913
324,1055 Metropolitan Ave,Charlotte,NC,28204,35.21287,-80.83485
325,5501 R C Josh Birmingham Pkwy,Charlotte,NC,28208,35.229206,-80.945382
326,10221 Perimeter Pkwy,Charlotte,NC,28216,35.34776,-80.85285
327,14125 River Gate Pkwy,Charlotte,NC,28273,35.10407,-80.98365
328,9839 Rea Rd,Charlotte,NC,28277,35.03423,-80.80365
329,2034 Skibo Rd,Fayetteville,NC,28314,35.05604,-78.97345
330,11088 N US Highway 15 501,Aberdeen,NC,28315,35.15698,-79.42002
331,309 S College Rd,Wilmington,NC,28403,34.23614,-77.87035
332,1116 Western Blvd,Jacksonville,NC,28546,34.78225,-77.39446
333,5171 US Highway 70 W,Morehead City,NC,28557,34.73742,-76.80869
334,1884 Catawba Valley Blvd SE,Hickory,NC,28602,35.70062,-81.30927
335,10 McKenna Rd,Arden,NC,28704,35.44689,-82.53691
336,45 Plaza Pl,Waynesville,NC,28786,35.46543,-83.01096
337,83 S Tunnel Rd,Asheville,NC,28805,35.57942,-82.52376
338,5135 Sunset Blvd,Lexington,SC,29072,34.00532,-81.1962
339,370 Harbison Blvd,Columbia,SC,29212,34.07617,-81.15271
340,10136 Two Notch Rd,Columbia,SC,29229,34.11648,-80.87833
341,110 E Blackstock Rd,Spartanburg,SC,29301,34.93523,-81.99251
342,7612 Rivers Ave,North Charleston,SC,29406,32.94154,-80.0373
343,1987 Sam Rittenberg Blvd,Charleston,SC,29407,32.79482,-80.02631
344,321 Azalea Square Blvd,Summerville,SC,29483,33.03795,-80.16131
345,2701 David H McLeod Blvd,Florence,SC,29501,34.19102,-79.83294
346,1145 Oak Forest Ln,Myrtle Beach,SC,29577,33.70585,-78.91816
347,1125 Woodruff Rd,Greenville,SC,29607,34.82968,-82.3003
348,3601 Clemson Blvd,Anderson,SC,29621,34.5516,-82.68059
349,2000 Gsp Dr,Greer,SC,29651,34.895446,-82.217228
350,2000 Gsp Dr,Greer,SC,29651,34.895447,-82.217232
351,1775 Chamberside Dr,Rock Hill,SC,29730,34.93884,-80.97712
352,1007 Fording Island Rd,Bluffton,SC,29910,32.25851,-80.85019
353,1540 Dogwood Dr SE,Conyers,GA,30013,33.64818871,-83.99568938
354,975 N Point Dr,Alpharetta,GA,30022,34.05216,-84.28452
355,2085 Market Place Blvd,Cumming,GA,30041,34.19297,-84.13022
356,1679 Scenic Hwy N,Snellville,GA,30078,33.88278,-84.01306
357,2460 Cobb Pkwy SE,Smyrna,GA,30080,33.89111,-84.47834
358,4135 Lavista Rd,Tucker,GA,30084,33.8454,-84.24857
359,1875 Pleasant Hill Rd,Duluth,GA,30096,33.95082,-84.1306
360,3335 Cobb Pkwy NW,Acworth,GA,30101,34.03367,-84.68354
361,1810 Cumming Hwy,Canton,GA,30115,34.23732,-84.46137
362,6875 Douglas Blvd,Douglasville,GA,30135,33.72779,-84.75784
363,5025 Jimmy Lee Smith Pkwy,Hiram,GA,30141,33.88984,-84.74535
364,2500 COBB PLACE LANE NW,KENNESAW,GA,30144,34.013546,-84.571994
365,850 Cobb Place Blvd NW,Kennesaw,GA,30144,34.01139,-84.57063
366,1861 Jonesboro Rd,McDonough,GA,30253,33.46359,-84.21807
367,1980 Mount Zion Rd,Morrow,GA,30260,33.56574,-84.32384
368,312 Newnan Crossing Byp E,Newnan,GA,30265,33.39001,-84.76379
369,2703 Hwy 54,Peachtree City,GA,30269,33.39772,-84.59726
370,1210 Caroline St NE,Atlanta,GA,30307,33.75941,-84.34875
371,285 ANDREW YOUNG INT BLVD NW,ATLANTA,GA,30313,33.759893,-84.397027
372,Hartsfield Jackson,Atlanta,GA,30320,33.64131927,-84.45014191
373,6000 N Terminal Pkwy,Atlanta,GA,30320,33.641683,-84.446549
374,6000 N Terminal Pkwy,Atlanta,GA,30320,33.64168167,-84.44655128
375,6000 N Terminal Pkwy,Atlanta,GA,30320,33.64168167,-84.44655128
376,6000 N Terminal Pkwy,Atlanta,GA,30320,33.637799,-84.429271
377,6000 N Terminal Pkwy,Atlanta,GA,30320,33.637799,-84.429271
378,2537 Piedmont Rd NE,Atlanta,GA,30324,33.82387,-84.36349
379,1201 Hammond Dr NE,Dunwoody,GA,30346,33.91941,-84.33976
380,670 Dawsonville Hwy,Gainesville,GA,30501,34.29716,-83.85338
381,3205 Woodward Crossing Blvd,Buford,GA,30519,34.07058,-83.98374
382,1791 Oconee Connector,Athens,GA,30606,33.91592,-83.4524
383,3667 Walton Way Ext,Augusta,GA,30909,33.4937,-82.07748
384,3040 Watson Blvd,Warner Robins,GA,31093,32.61926,-83.69276
385,4676 Presidential Pkwy,Macon,GA,31206,32.81723,-83.71259
386,7929 Abercorn St,Savannah,GA,31406,32.00327,-81.12539
387,400 Airways Ave,Savannah,GA,31408,32.13816337,-81.21709853
388,1705 Norman Dr,Valdosta,GA,31601,30.84011,-83.31825
389,6499 Whittlesey Blvd,Columbus,GA,31909,32.549612,-84.940043
390,1900 W International Speedway,Daytona Beach,FL,32114,29.19187,-81.07414
391,552 N US Hwy 27,Lady Lake,FL,32159,28.93136,-81.93575
392,13141 City Station Dr,Jacksonville,FL,32218,30.4756,-81.64281
393,2400 Yankee Clipper Dr,Jacksonville,FL,32218,30.49146,-81.683108
394,2400 Yankee Clipper Dr,Jacksonville,FL,32218,30.491461,-81.683105
395,9355 Atlantic Blvd,Jacksonville,FL,32225,30.31955,-81.55629
396,8151 Blanding Blvd,Jacksonville,FL,32244,30.19856,-81.73815
397,4906 Town Center Pkwy,Jacksonville,FL,32246,30.254753,-81.53472
398,9930 Southside Blvd,Jacksonville,FL,32256,30.19026,-81.55414
399,1400 Apalachee Pkwy,Tallahassee,FL,32301,30.43749,-84.25941
400,1000 E 23rd St,Panama City,FL,32405,30.18895,-85.64419
401,5480 N 9th Ave,Pensacola,FL,32504,30.47726,-87.2067
402,34940 Emerald Coast Pkwy,Destin,FL,32541,30.38689,-86.42394
403,3750 SW Archer Rd,Gainesville,FL,32608,29.62268,-82.38094
404,597 W State Road 436,Altamonte Springs,FL,32714,28.66295,-81.40587
405,1501 Rinehart Rd,Sanford,FL,32771,28.80144,-81.3296
406,4601 E Colonial Dr,Orlando,FL,32803,28.55481,-81.32876
407,8350 S Orange Blossom Trl,Orlando,FL,32809,28.44434,-81.40384
408,14100 BONNET CREEK RESORT LN,ORLANDO,FL,32821,28.355641,-81.534671
409,Orlando Intl Airport,Orlando,FL,32827,28.43303108,-81.31125641
410,1 Airport Blvd,Orlando,FL,32827,28.43303108,-81.31125641
411,1 Airport Blvd,Orlando,FL,32827,28.43303108,-81.31125641
412,1 Airport Blvd,Orlando,FL,32827,28.43303108,-81.31125641
413,One Airport Blvd,Orlando,FL,32827,28.43303108,-81.31125641
414,One Airport Blvd,Orlando,FL,32827,28.43303108,-81.31125641
415,One Airport Blvd,Orlando,FL,32827,28.43303108,-81.31125641
416,845 N Alafaya Trl,Orlando,FL,32828,28.55701,-81.20488
417,4155 Millenia Blvd,Orlando,FL,32839,28.49121,-81.43123
418,1900 Evans Rd,Melbourne,FL,32904,28.07992,-80.65497
419,6156 20th St,Vero Beach,FL,32966,27.64123,-80.45379
420,4001 W 20th Ave,Hialeah,FL,33012,25.85843,-80.32164
421,11450 Pines Blvd,Pembroke Pines,FL,33026,26.00642,-80.30085
422,33590 S Dixie Hwy,Florida City,FL,33034,25.45552,-80.47652
423,3300 NW 62nd Ave,Margate,FL,33063,26.2705,-80.20534
424,650 N University Dr,Coral Springs,FL,33071,26.23941,-80.25581
425,2100 NW 42nd Ave,Miami,FL,33126,25.808096,-80.269845
426,2100 NW 42nd Ave,Miami,FL,33126,25.808096,-80.269845
427,2100 NW 42nd Ave,Miami,FL,33126,25.808096,-80.269845
428,2100 NW 42nd Ave,Miami,FL,33126,25.808096,-80.269845
429,2100 NW 42nd Ave,Miami,FL,33126,25.808096,-80.269845
430,2100 NW 42nd Ave,Miami,FL,33126,25.808096,-80.269845
431,2100 NW 42nd Ave,Miami,FL,33126,25.808096,-80.269845
432,2100 NW 42nd Ave,Miami,FL,33126,25.808096,-80.269845
433,2100 NW 42nd Ave,Miami,FL,33126,25.808096,-80.269845
434,2100 NW 42nd Ave,Miami,FL,33126,25.808096,-80.269845
435,2100 NW 42nd Ave,Miami,FL,33126,25.808096,-80.269845
436,1131 5th St,Miami Beach,FL,33139,25.77478,-80.14039
437,8450 S Dixie Hwy,Miami,FL,33143,25.69294,-80.30615
438,7751 Bird Rd,Miami,FL,33155,25.73414,-80.31984
439,11905 S Dixie Hwy,Miami,FL,33156,25.66003,-80.32569
440,10760 NW 17th St,Miami,FL,33172,25.78935,-80.37035
441,21035 Biscayne Blvd,Aventura,FL,33180,25.97027,-80.14213
442,12495 SW 88th St,Miami,FL,33186,25.68733,-80.39545
443,1901 N Federal Hwy,Fort Lauderdale,FL,33305,26.16284,-80.11701
444,12301 W Sunrise Blvd,Plantation,FL,33323,26.14718,-80.31264
445,2200 S University Dr,Davie,FL,33324,26.0924,-80.24763
446,1880 Palm Beach Lakes Blvd,West Palm Beach,FL,33401,26.71919,-80.08777
447,Palm Beach Intl Airport,West Palm Beach,FL,33406,26.69086075,-80.0877533
448,Palm Beach Intl Airport,West Palm Beach,FL,33406,26.69086075,-80.0877533
449,11230 Legacy Ave,Palm Beach Gardens,FL,33410,26.84035,-80.09127
450,1040 S State Road 7,Wellington,FL,33414,26.6633,-80.20091
451,550 N Congress Ave,Boynton Beach,FL,33426,26.53247,-80.08804
452,20540 State Road 7,Boca Raton,FL,33498,26.37105,-80.20078
453,116 Grand Regency Blvd,Brandon,FL,33510,27.94221,-82.32595
454,5947 Wesley Grove Blvd,Wesley Chapel,FL,33544,28.244,-82.35268
455,1725 N Dale Mabry Hwy,Tampa,FL,33607,27.958,-82.50363
456,12675 Citrus Plaza Dr,Tampa,FL,33625,28.0634,-82.57664
457,18071 Highwoods Preserve Pkwy,Tampa,FL,33647,28.13176,-82.36709
458,6600 22nd Avenue N,Saint Petersburg,FL,33710,27.79043,-82.73077
459,21415 US Highway 19 N,Clearwater,FL,33765,27.96735,-82.72694
460,4215 US Highway 98 N,Lakeland,FL,33809,28.09513,-81.97231
461,6300 Grandview Pkwy,Davenport,FL,33837,28.23676,-81.64171
462,8906 N Road 33,Polk City,FL,33868,28.1617,-81.8582
463,5019 S Cleveland Ave,Fort Myers,FL,33907,26.58479,-81.8697
464,10033 Gulf Center Dr,Fort Myers,FL,33913,26.48611,-81.79098
465,8000 Mediterranean Dr,Estero,FL,33928,26.40863,-81.80989
466,18700 Veterans Blvd,Port Charlotte,FL,33954,27.01489,-82.14514
467,6325 Naples Blvd,Naples,FL,34109,26.22155,-81.77404
468,4210 14th St W,Bradenton,FL,34205,27.46355,-82.57803
469,4020 S Tamiami Trl,Sarasota,FL,34231,27.29576,-82.53253
470,135 N Cattlemen Rd,Sarasota,FL,34243,27.38388,-82.45812
471,2499 SW 27th Ave,Ocala,FL,34471,29.16386,-82.16827
472,1389 Wendy Ct,Spring Hill,FL,34607,28.45491,-82.63269
473,9409 US Highway 19,Port Richey,FL,34668,28.29321,-82.7121
474,1620 W Osceola Pkwy,Kissimmee,FL,34741,28.34072,-81.42125
475,9537 W Colonial Dr,Ocoee,FL,34761,28.55325,-81.51799
476,3367 Daniels Rd,Winter Garden,FL,34787,28.5217,-81.5826
477,2555 NW Federal Hwy,Stuart,FL,34994,27.23706,-80.2673
478,5072 Pinnacle Sq,Birmingham,AL,35235,33.60413,-86.64296
479,4610 Highway 280,Birmingham,AL,35242,33.42707,-86.70997
480,3780 Riverchase Vlg,Hoover,AL,35244,33.37807,-86.79989
481,1800 McFarland Blvd E,Tuscaloosa,AL,35404,33.19559,-87.52772
482,5850B University Dr NW,Huntsville,AL,35806,34.74186,-86.66409
483,2431 Cobbs Ford Rd,Prattville,AL,36066,32.46076,-86.39825
484,1580 Eastern Blvd,Montgomery,AL,36117,32.35612,-86.21971
485,1100 Oxford Exchange Blvd,Oxford,AL,36203,33.60941,-85.78066
486,4863 Montgomery Hwy,Dothan,AL,36303,31.26939,-85.44784
487,10200 Eastern Shore Blvd,Spanish Fort,AL,36527,30.66432,-87.8484
488,1310 Tingle Cir E,Mobile,AL,36606,30.65071,-88.11466
489,2147 Tiger Town Pkwy,Opelika,AL,36801,32.61796,-85.40544
490,1600 Galleria Blvd,Brentwood,TN,37027,35.97092,-86.80781
491,2805 Wilma Rudolph Blvd,Clarksville,TN,37040,36.58577,-87.29048
492,2311 Gallatin Pike N,Madison,TN,37115,36.30688,-86.68154
493,401 S Mt Juliet Rd,Mount Juliet,TN,37122,36.16771,-86.51109
494,2615 Medical Center Pkwy,Murfreesboro,TN,37129,35.8605,-86.44802
495,6810 Charlotte Pike,Nashville,TN,37209,36.13606,-86.89103
496,Nashville Airport,Nashville,TN,37214,36.13441849,-86.66816711
497,1 Terminal Dr,Nashville,TN,37214,36.129013,-86.67042
498,2800 Opryland Ddr,Nashville,TN,37214,36.21350098,-86.69744873
499,5591 Hwy 153,Hixson,TN,37343,35.14734,-85.25169
500,2290 Gunbarrel Rd,Chattanooga,TN,37421,35.03742,-85.14973
501,3222 Peoples St,Johnson City,TN,37604,36.34795,-82.40076
502,2716 E Stone Dr,Kingsport,TN,37660,36.55183,-82.49068
503,8925 Towne and Country Cir,Knoxville,TN,37923,35.91851,-84.08485
504,11491 Parkside Dr,Farragut,TN,37934,35.89989,-84.16657
505,Memphis Intl Airport,Memphis,TN,38116,35.04996109,-89.98223114
506,5821 Poplar Ave,Memphis,TN,38119,35.10072,-89.86793
507,7771 Winchester Rd,Memphis,TN,38125,35.04687,-89.80442
508,2755 Germantown Pkwy,Memphis,TN,38133,35.20068,-89.79318
509,1170 Vann Dr,Jackson,TN,38305,35.66354,-88.85775
510,304 Market Plz,Southaven,MS,38671,34.96525,-89.9953
511,3040 N Gloster St,Tupelo,MS,38804,34.29739,-88.70708
512,175 Grandview Blvd,Madison,MS,39110,32.46526,-90.13675
513,194 Promenade Blvd,Flowood,MS,39232,32.3439,-90.05981
514,133 S Frontage Rd,Meridian,MS,39301,32.36481,-88.67377
515,4600 Hardy St,Hattiesburg,MS,39402,31.32232,-89.35806
516,10545 Hwy 49,Gulfport,MS,39503,30.44121,-89.09899
517,3889 Promenade Pkwy,Diberville,MS,39540,30.45349,-88.90077
518,5085 Shelbyville Rd,Louisville,KY,40207,38.25226,-85.62086
519,4251 Outer Loop,Louisville,KY,40219,38.13998,-85.68096
520,3220 Nicholasville Rd,Lexington,KY,40503,37.99317,-84.52059
521,1979 Pavilion Wy,Lexington,KY,40509,38.02264,-84.41957
522,100 Meijer Dr,Florence,KY,41042,39.01372,-84.63589
523,5101 Hinckleville Rd,Paducah,KY,42001,37.07924,-88.68668
524,1875 Campbell Ln,Bowling Green,KY,42104,36.95353,-86.42777
525,5101 Frederica St,Owensboro,KY,42301,37.71835,-87.12194
526,2050 N Dixie Hwy,Elizabethtown,KY,42701,37.74028,-85.89142
527,5800 Britton Pkwy,Dublin,OH,43016,40.07253,-83.13644
528,701 Hebron Rd,Heath,OH,43056,40.03428,-82.43614
529,2782 Taylor Road Ext,Reynoldsburg,OH,43068,39.93575,-82.78506
530,1632 Stringtown Rd,Grove City,OH,43123,39.88052,-83.03875
531,1645 River Valley Cir N,Lancaster,OH,43130,39.73473,-82.62851
532,3840 Morse Rd,Columbus,OH,43219,40.06026,-82.9175
533,Columbus Airport,Columbus,OH,43219,41.411828,-81.834868
534,4600 International Gateway,Columbus,OH,43219,39.997501,-82.888962
535,4600 International Gateway,Columbus,OH,43219,39.997501,-82.888962
536,1375 Polaris Pkwy,Columbus,OH,43240,40.13965,-82.98246
537,1405 Spring Meadows Dr,Holland,OH,43528,41.61556,-83.69676
538,4505 Monroe St,Toledo,OH,43613,41.6869,-83.62053
539,1600 Center Rd,Avon,OH,44011,41.46584,-82.02036
540,6650 Midway Blvd,Elyria,OH,44035,41.39722,-82.11292
541,470 E Aurora Rd,Macedonia,OH,44056,41.31352,-81.52166
542,7830 Plaza Blvd,Mentor,OH,44060,41.65807,-81.36713
543,5140 Great Northern Plz S,North Olmsted,OH,44070,41.4151,-81.91203
544,14013 DETROIT AVE,LAKEWOOD,OH,44107,41.485119,-81.790143
545,1417 Golden Gate Blvd,Mayfield Heights,OH,44124,41.52244,-81.4473
546,7400 Brookpark Rd,Cleveland,OH,44129,41.42039,-81.73562
547,Cleveland Airport,Cleveland,OH,44135,41.41167831,-81.83473206
548,5300 Riverside Dr,Cleveland,OH,44135,41.406619,-81.851202
549,16630 Royalton Rd,Strongsville,OH,44136,41.31484,-81.81492
550,445 Howe Ave,Cuyahoga Falls,OH,44221,41.1208,-81.47833
551,96 Rothrock Rd,Akron,OH,44321,41.13275,-81.65008
552,5815 Youngstown Warren Rd,Niles,OH,44446,41.20949,-80.74636
553,561 Boardman Poland Rd,Boardman,OH,44512,41.02225,-80.64296
554,3906 Burbank Rd,Wooster,OH,44691,40.84667,-81.94612
555,6595 Strip Ave NW,North Canton,OH,44720,40.87663,-81.43516
556,4210 Milan Rd,Sandusky,OH,44870,41.41798,-82.6729
557,2175 Walker Lake Rd,Mansfield,OH,44903,40.78604,-82.59276
558,3435 Princeton Rd,Hamilton,OH,45011,39.38649,-84.49984
559,5555 Glenway Ave,Cincinnati,OH,45238,39.13108,-84.61064
560,650 Eastgate South Dr,Cincinnati,OH,45245,39.09835,-84.27782
561,865 E Kemper Rd,Springdale,OH,45246,39.28473,-84.45564
562,9871 Waterstone Blvd,Cincinnati,OH,45249,39.29409,-84.30628
563,9845 Colerain Ave,Cincinnati,OH,45251,39.25053,-84.59867
564,2907 Centre Dr,Fairborn,OH,45324,39.77402,-84.05001
565,131 Mall Woods Dr,Dayton,OH,45449,39.64109,-84.22941
566,1709 N Bechtle Ave,Springfield,OH,45504,39.9473,-83.83488
567,1800 Tiffin Ave,Findlay,OH,45840,41.05396,-83.61554
568,10025 N Michigan Rd,Carmel,IN,46032,39.93387,-86.22999
569,14610 N Meridian St,Carmel,IN,46032,40.00067,-86.12923
570,17200 Mercantile Blvd,Noblesville,IN,46060,40.03887,-85.99151
571,10346 E US Highway 36,Avon,IN,46123,39.76621,-86.34029
572,562 Fry Rd,Greenwood,IN,46142,39.62961,-86.11918
573,9977 E Washington St,Indianapolis,IN,46229,39.77288,-85.99211
574,2500 S High School Rd,Indianapolis,IN,46241,39.72662354,-86.26722717
575,7800 Col H Weir Cook Memorial,Indianapolis,IN,46241,39.72286606,-86.27157593
576,5820 E 82nd St,Indianapolis,IN,46250,39.906,-86.06923
577,4625 Lafayette Rd,Indianapolis,IN,46254,39.84005,-86.24613
578,10243 Indianapolis Blvd,Highland,IN,46322,41.52795,-87.46847
579,91 Silhavy Rd,Valparaiso,IN,46383,41.4682,-87.02455
580,2490 E 79th Ave,Merrillville,IN,46410,41.47307,-87.30626
581,6502 Grape Rd,Mishawaka,IN,46545,41.71904,-86.18495
582,1770 Apple Glen Blvd,Fort Wayne,IN,46804,41.06886,-85.19971
583,737 Northcrest Shopping Ctr,Fort Wayne,IN,46805,41.12062,-85.13005
584,1403 S Reed Rd,Kokomo,IN,46902,40.47029,-86.11004
585,1025 Veterans Pkwy,Clarksville,IN,47129,38.327,-85.76627
586,1343 North National Road,Columbus,IN,47201,39.21355,-85.87981
587,3301 N Marleon Dr,Muncie,IN,47304,40.21978,-85.43791
588,3720 National Road E,Richmond,IN,47374,39.83308,-84.8495
589,2721 E 3rd St,Bloomington,IN,47401,39.16558,-86.49703
590,6300 E Lloyd Expressway,Evansville,IN,47715,37.97861,-87.47533
591,3676 S US Highway 41,Terre Haute,IN,47802,39.42196,-87.4135
592,2323 Sagamore Pkwy S,Lafayette,IN,47905,40.39467,-86.8534
593,28400 Telegraph Rd,Southfield,MI,48034,42.49616,-83.28276
594,50400 Waterside Dr,Chesterfield,MI,48051,42.66783,-82.82831
595,4611 24th Ave,Fort Gratiot,MI,48059,43.0429,-82.45849
596,30701 Gratiot Ave,Roseville,MI,48066,42.52249,-82.92285
597,32320 John R Rd,Madison Heights,MI,48071,42.52984,-83.10492
598,3349 Fairlane Dr,Allen Park,MI,48101,42.28017,-83.20332
599,3100 Lohr Rd,Ann Arbor,MI,48108,42.23991,-83.76289
600,8487 W Grand River Ave,Brighton,MI,48116,42.54364,-83.78341
601,16221 Ford Rd,Dearborn,MI,48126,42.32831,-83.20281
602,23000 Eureka Rd,Taylor,MI,48180,42.19914,-83.25429
603,35100 Central City Pkwy,Westland,MI,48185,42.34466,-83.38669
604,1 Detroit Metro Airport,Detroit,MI,48242,42.241477,-83.337969
605,2169 S Telegraph Rd,Bloomfield,MI,48302,42.608,-83.29398
606,2651 S Rochester Rd,Rochester Hills,MI,48307,42.64136,-83.12926
607,45520 Utica Park Blvd,Utica,MI,48315,42.63107,-83.00632
608,300 Brown Rd,Auburn Hills,MI,48326,42.70664,-83.2993
609,30830 Orchard Lake Rd,Farmington Hills,MI,48334,42.52476,-83.35844
610,21051 Haggerty Rd,Novi,MI,48375,42.44123,-83.4376
611,G3660 Miller Rd,Flint,MI,48507,42.9851,-83.75193
612,4460 Bay Rd,Saginaw,MI,48603,43.47216,-83.97259
613,2020 W Grand River Rd,Okemos,MI,48864,42.72333,-84.42345
614,5216 W Saginaw Hwy,Lansing,MI,48917,42.74357,-84.62346
615,6900 S Westnedge Ave,Portage,MI,49002,42.21672,-85.59033
616,12765 Harper Village Dr,Battle Creek,MI,49014,42.265,-85.17779
617,1515 Orchard Xing,Benton Harbor,MI,49022,42.07678,-86.42167
618,1014 Jackson Xing,Jackson,MI,49202,42.26814,-84.42559
619,4830 Wilson Ave SW,Grandville,MI,49418,42.8769,-85.76119
620,3549 W Shore Dr,Holland,MI,49424,42.83286,-86.09457
621,5425 Harvey St,Muskegon,MI,49444,43.15311,-86.20749
622,5500 44th St SE,Grand Rapids,MI,49512,42.883604,-85.625874
623,5500 44th St SE,Grand Rapids,MI,49512,42.883604,-85.625874
624,3410 Alpine Ave NW,Grand Rapids,MI,49544,43.02517,-85.68812
625,2650 E Belt Line SE,Grand Rapids,MI,49546,42.91492,-85.58176
626,2577 N US Highway 31 S,Traverse City,MI,49684,44.72355,-85.64765
627,3725 US 41 W,Marquette,MI,49855,46.5477,-87.47325
628,1220 S Duff Ave,Ames,IA,50010,42.01142,-93.60822
629,1955 SE Delaware Ave,Ankeny,IA,50021,41.71064,-93.578
630,4100 University Ave,West Des Moines,IA,50266,41.59794,-93.7606
631,6825 Mills Civic Pkwy,West Des Moines,IA,50266,41.56299,-93.8015
632,440 Indian Head Dr,Mason City,IA,50401,43.14684,-93.26818
633,2541 Crossroads Blvd,Waterloo,IA,50702,42.45836,-92.32485
634,4730 Sergeant Rd,Sioux City,IA,51106,42.44554,-96.34552
635,801 Wacker Dr,Dubuque,IA,52002,42.49274,-90.72102
636,1431 Coral Ridge Ave,Coralville,IA,52241,41.69136,-91.59803
637,4650 1st Ave NE,Cedar Rapids,IA,52402,42.0259,-91.62338
638,5153 Elmore Ave,Davenport,IA,52807,41.57141,-90.52588
639,3270 Golf Rd,Delafield,WI,53018,43.05131,-88.36495
640,3600 County Trunk Hwy A,Kohler,WI,53044,43.71278,-87.76242
641,19555 W Bluemound Rd,Brookfield,WI,53045,43.03504,-88.15416
642,N94 W16855 Falls Pkwy,Menomonee Falls,WI,53051,43.18902,-88.11911
643,11840 71st St,Kenosha,WI,53142,42.57185,-87.95151
644,700 N Edwards Blvd,Lake Geneva,WI,53147,42.59922,-88.41592
645,5300 S Howell Ave Concourse C,Milwaukee,WI,53207,42.98387146,-87.8967514
646,8755 N Port Washington Rd,Fox Point,WI,53217,43.17534,-87.91459
647,4610 S 76th St,Greenfield,WI,53220,42.9611,-88.00699
648,2401 N Mayfair Rd,Wauwatosa,WI,53226,43.06319,-88.04846
649,2710 S Green Bay Rd,Racine,WI,53406,42.70059,-87.85549
650,2850 Deerfield Dr,Janesville,WI,53546,42.71618,-88.97838
651,2452 E Springs Dr,Madison,WI,53704,43.12928,-89.29877
652,4000 International Ln,Madison,WI,53704,43.142082,-89.337745
653,7357 W Towne Way,Madison,WI,53719,43.05555,-89.51111
654,825 Pilgrim Way,Green Bay,WI,54304,44.48146,-88.06994
655,3800 Rib Mountain Dr,Wausau,WI,54401,44.92271,-89.65555
656,1145 Commons Cir,Plover,WI,54467,44.49429,-89.51675
657,9420 State Road 16,Onalaska,WI,54650,43.8761,-91.19136
658,4090 Commonwealth Ave,Eau Claire,WI,54701,44.77358,-91.43212
659,1550 S Koeller St,Oshkosh,WI,54902,44.00397,-88.57998
660,4240 W Wisconsin Ave,Appleton,WI,54913,44.27521,-88.47067
661,2411 S Kensington Dr,Appleton,WI,54915,44.24076,-88.36201
662,1795 County Rd D E,Maplewood,MN,55109,45.03639,-93.02609
663,Mpls St Paul Intl Airport,Saint Paul,MN,55111,44.88623047,-93.19202423
664,4300 Glumack Dr,Saint Paul,MN,55111,44.880544,-93.205676
665,1643 County Road B2,Roseville,MN,55113,45.01643,-93.16787
666,1235 Town Centre Dr,Eagan,MN,55123,44.83303,-93.15589
667,15300 Cedar Ave,Apple Valley,MN,55124,44.72874,-93.21401
668,8301 3rd St N,Oakdale,MN,55128,44.9496,-92.93713
669,13513 Ridgedale Dr,Hopkins,MN,55305,44.97001,-93.44936
670,14141 Aldrich Ave S,Burnsville,MN,55337,44.74802,-93.28584
671,14675 MARTIN DR,EDEN PRAIRIE,MN,55344,44.86274,-93.4633
672,11600 Leona Rd,Eden Prairie,MN,55344,44.86091,-93.42473
673,1350 Hwy 15 S,Hutchinson,MN,55350,44.8694,-94.3783
674,12905 Elm Creek Blvd N,Maple Grove,MN,55369,45.09408,-93.44484
675,8100 Old Carriage Ct,Shakopee,MN,55379,44.77825,-93.41347
676,1301 Second Ave S,Minneapolis,MN,55403,44.9703064,-93.27333832
677,1000 West 78th St,Richfield,MN,55423,44.86321,-93.29274
678,7601 Penn Ave S,Richfield,MN,55423,44.86422,-93.30566
679,300 Northtown Dr NE,Blaine,MN,55434,45.12607,-93.26186
680,12633 Riverdale Blvd NW,Coon Rapids,MN,55448,45.20112,-93.34819
681,7150 Humphrey Dr,Minneapolis,MN,55450,44.87362772,-93.22779246
682,7150 Humphrey Dr,Minneapolis,MN,55450,44.87362772,-93.22779246
683,7150 Humphrey Dr,Minneapolis,MN,55450,44.87362772,-93.22779246
684,7150 Humphrey Dr,Minneapolis,MN,55450,44.87362772,-93.22779246
685,5105 Burning Tree Rd,Duluth,MN,55811,46.80857,-92.16994
686,4050 Hwy 52 N,Rochester,MN,55901,44.06474,-92.49791
687,1895 Adams St,Mankato,MN,56001,44.16944,-93.94998
688,4130 W Division St,Saint Cloud,MN,56301,45.55235,-94.21073
689,14555 Edgewood Dr,Baxter,MN,56425,46.36301,-94.2462
690,2101 W 41st St,Sioux Falls,SD,57105,43.5133,-96.75555
691,2320 N Haines Ave,Rapid City,SD,57701,44.10823,-103.22044
692,3902 13th Ave S,Fargo,ND,58103,46.8591,-96.84652
693,3751 32nd Ave S,Grand Forks,ND,58201,47.88874,-97.08179
694,1207 W Century Ave,Bismarck,ND,58503,46.83114,-100.81075
695,1018 24th Ave SW,Minot,ND,58701,48.20795,-101.30815
696,2450 King Ave W,Billings,MT,59102,45.75412,-108.57836
697,2640 N Reserve St,Missoula,MT,59808,46.88926,-114.03659
698,2407 Highway 93 N,Kalispell,MT,59901,48.23757,-114.32637
699,615 E Palatine Rd,Arlington Heights,IL,60004,42.10752,-87.97503
700,5880 Northwest Hwy,Crystal Lake,IL,60014,42.22797,-88.31484
701,9300 W Bryn Mawr Ave,Rosemont,IL,60018,41.981339,-87.858749
702,6525 Grand Ave,Gurnee,IL,60031,42.3814,-87.96576
703,13783 West Oasis Service Rd,Lake Forest,IL,60045,42.25440904,-87.90300608
704,20771 N Rand Rd,Kildeer,IL,60047,42.1653,-88.05774
705,701 N Milwaukee Ave,Vernon Hills,IL,60061,42.23692,-87.94295
706,1072 Willow Rd,Northbrook,IL,60062,42.1068,-87.80539
707,5425 Touhy Ave,Skokie,IL,60077,42.01048,-87.76463
708,1561 S Randall Rd,Algonquin,IL,60102,42.15216,-88.33366
709,350 W Army Trail Rd,Bloomingdale,IL,60108,41.93659,-88.10993
710,2074 Sycamore Rd,Dekalb,IL,60115,41.94825,-88.72298
711,1876 S Randall Rd,Geneva,IL,60134,41.86786,-88.34323
712,1334 Winston Plz,Melrose Park,IL,60160,41.90716,-87.85034
713,900 E Golf Rd,Schaumburg,IL,60173,42.05154,-88.05669
714,1551 THOREAU DR N,SCHAUMBURG,IL,60173,42.061216,-88.041657
715,10201 Belle Plaine Ave,Schiller Park,IL,60176,41.95275776,-87.88336426
716,424 Randall Rd,South Elgin,IL,60177,41.98452,-88.34394
717,2301 Howard St,Evanston,IL,60202,42.02097,-87.70697
718,4925 Cal Sag Rd,Crestwood,IL,60418,41.65376,-87.74315
719,17800 S Halsted St,Homewood,IL,60430,41.56618,-87.63762
720,3351 Mall Loop Dr,Joliet,IL,60431,41.58082,-88.16543
721,7602 S Cicero Ave,Burbank,IL,60459,41.755876,-87.743288
722,7600 S Cicero Ave,Burbank,IL,60459,41.75588,-87.74252
723,15854 S La Grange Rd,Orland Park,IL,60462,41.60189,-87.85695
724,7330 191st St,Tinley Park,IL,60487,41.54892,-87.7959
725,1500 Remington Blvd,Bolingbrook,IL,60490,41.65358,-88.13174
726,315 N Weber Rd,Bolingbrook,IL,60490,41.7048,-88.12792
727,4400 E New York St,Aurora,IL,60504,41.76491,-88.20743
728,1432 Butterfield Rd,Downers Grove,IL,60515,41.83595,-88.01968
729,7401 Lemont Rd,Downers Grove,IL,60516,41.75259,-88.01016
730,5800 Tri State Toll Rd,Hinsdale,IL,60521,41.77663803,-87.90787506
731,11 Countryside Plz,Countryside,IL,60525,41.78414,-87.87201
732,2600 US Hwy 34,Oswego,IL,60543,41.70146,-88.30987
733,2358 Harlem Ave,North Riverside,IL,60546,41.84795,-87.80607
734,151 E Upper Wacker Dr,Chicago,IL,60601,41.886825,-87.627213
735,555 W Roosevelt Rd,Chicago,IL,60607,41.86686,-87.64116
736,875 N Michigan Ave,Chicago,IL,60611,41.89875,-87.6235
737,2100 N Elston Ave,Chicago,IL,60614,41.91902,-87.66966
738,2233 S Martin Luther King Blvd,Chicago,IL,60616,41.84725571,-87.62774658
739,1000 W North Ave,Chicago,IL,60642,41.91255,-87.65454
740,4100A N Harlem Ave,Norridge,IL,60706,41.95447,-87.80772
741,1584 N State Route 50,Bourbonnais,IL,60914,41.17263,-87.85042
742,2510 Pearl St,Belvidere,IL,61008,42.23517828,-88.84171687
743,281 Deane Dr,Rockford,IL,61107,42.27114,-88.98191
744,5001 N Big Hollow Rd,Peoria,IL,61615,40.74842,-89.64036
745,2103 N Veterans Pkwy,Bloomington,IL,61704,40.50736,-88.9517
746,2117 N Prospect Ave,Champaign,IL,61822,40.14217,-88.26041
747,6670 Edwardsville Crossing Dr,Edwardsville,IL,62025,38.78824,-89.95185
748,26 Plaza Dr,Fairview Heights,IL,62208,38.59892,-89.99405
749,1450 Koester Dr,Forsyth,IL,62535,39.9157,-88.95303
750,3193 S Veterans Pkwy,Springfield,IL,62704,39.75951,-89.70831
751,1270 E Main St,Carbondale,IL,62901,37.73425,-89.19184
752,178 THF Blvd,Chesterfield,MO,63005,38.66601,-90.59511
753,17397 CHESTERFIELD AIRPORT RD,CHESTERFIELD,MO,63005,38.66995,-90.60623
754,151 Highlands Blvd Dr,Manchester,MO,63011,38.5941,-90.50747
755,717 Gravois Rd,Fenton,MO,63026,38.51222,-90.44799
756,12410 St Charles Rock Rd,Bridgeton,MO,63044,38.75415,-90.43246
757,7017 S Lindbergh Blvd,Saint Louis,MO,63125,38.50958,-90.33042
758,8350 Eager Rd,Saint Louis,MO,63144,38.62814,-90.33718
759,5651 South Service Rd,Saint Peters,MO,63376,38.79818,-90.61192
760,3026 William St,Cape Girardeau,MO,63703,37.30179,-89.5696
761,19110 E 39th St S,Independence,MO,64057,39.05009,-94.35494
762,1608 NW Chipman Rd,Lees Summit,MO,64081,38.93031,-94.40725
763,601 Brasilia Ave,Kansas City,MO,64153,39.30629052,-94.7163675
764,601 Brasilia Ave,Kansas City,MO,64153,39.30629052,-94.7163675
765,601 Brasilia Ave,Kansas City,MO,64153,39.30629052,-94.7163675
766,9130 N Skyview Ave,Kansas City,MO,64154,39.25891,-94.65784
767,8500 N Flintlock Rd,Kansas City,MO,64157,39.24611,-94.46756
768,5201 N Belt Hwy,Saint Joseph,MO,64506,39.81693,-94.81301
769,3117 Turkey Creek Blvd,Joplin,MO,64801,37.09457,-94.47404
770,3225 Missouri Blvd,Jefferson City,MO,65109,38.58057,-92.24038
771,2001 W Worley St,Columbia,MO,65203,38.96282,-92.37
772,977 Branson Hills Pkwy,Branson,MO,65616,36.66781,-93.22503
773,3450 S Glenstone Ave,Springfield,MO,65804,37.15078,-93.25699
774,1845 E SUNSHINE ST,SPRINGFIELD,MO,65804,37.181684,-93.261533
775,2020 W 31st St,Lawrence,KS,66046,38.92984,-95.25901
776,11525 Metcalf Ave,Overland Park,KS,66210,38.91694,-94.66687
777,9301 Quivira Rd,Overland Park,KS,66215,38.95953,-94.72282
778,329 Tuttle Creek Blvd,Manhattan,KS,66502,39.18229,-96.55927
779,1600 SW Wanamaker Rd,Topeka,KS,66604,39.0376,-95.7606
780,2441 N Maize Rd,Wichita,KS,67205,37.7304,-97.46445
781,2111 North Rock Rd,Wichita,KS,67206,37.72181,-97.2467
782,6700 W Kellogg Dr,Wichita,KS,67209,37.67512,-97.41971
783,7949 Towne Center Pkwy,Papillion,NE,68046,41.1366,-96.03072
784,115 N 76th St,Omaha,NE,68114,41.259949,-96.031483
785,333 N 170th St,Omaha,NE,68118,41.26164,-96.18021
786,6919 O Street,Lincoln,NE,68510,40.81256,-96.62589
787,3404 W 13th St,Grand Island,NE,68803,40.93465,-98.3815
788,3780 Veterans Memorial Blvd,Metairie,LA,70002,30.00281,-90.16763
789,6205 Veterans Memorial Blvd,Metairie,LA,70003,30.00565,-90.21117
790,1601 Westbank Expy,Harvey,LA,70058,29.90551,-90.06798
791,1138 S Clearview Pkwy,New Orleans,LA,70123,29.96326,-90.18569
792,2 Poydras St,New Orleans,LA,70130,29.947879,-90.063425
793,1640 Martin Luther King Blvd,Houma,LA,70360,29.61166,-90.75093
794,2020 Hammond Square Dr,Hammond,LA,70403,30.4805,-90.46042
795,69344 Highway 21,Covington,LA,70433,30.4444,-90.13722
796,200 Town Center Pkwy,Slidell,LA,70458,30.26809,-89.75772
797,5635 Johnston St,Lafayette,LA,70503,30.17568,-92.0746
798,715 W Prien Lake Rd,Lake Charles,LA,70601,30.19782,-93.2311
799,1977 Millerville Rd,Baton Rouge,LA,70816,30.44179,-91.02203
800,5913 Bluebonnet Blvd,Baton Rouge,LA,70836,30.39268,-91.08416
801,7080 Youree Dr,Shreveport,LA,71105,32.44074,-93.72049
802,2641 Beene Blvd,Bossier City,LA,71111,32.55857,-93.70915
803,4429 Pecanland Mall Dr,Monroe,LA,71203,32.49859,-92.06739
804,2657 S Macarthur Dr,Alexandria,LA,71301,31.27102,-92.4591
805,1462 Higdon Ferry Rd,Hot Springs,AR,71913,34.46749,-93.07234
806,600 Elsinger Blvd,Conway,AR,72032,35.08629,-92.41133
807,4229 E McCain Blvd,North Little Rock,AR,72117,34.79136,-92.22103
808,One Airport Dr,Little Rock,AR,72202,34.7534256,-92.27475739
809,11800 Chenal Pkwy,Little Rock,AR,72211,34.7498,-92.40573
810,3000 E Highland Dr,Jonesboro,AR,72401,35.82281,-90.66332
811,464 E Joyce Blvd,Fayetteville,AR,72703,36.12484,-94.15066
812,1 Airport Blvd #100,Bentonville,AR,72712,36.279748,-94.302562
813,2220 Promenade Blvd,Rogers,AR,72758,36.30456,-94.17959
814,4195 Phoenix Ave,Fort Smith,AR,72903,35.34039,-94.38509
815,400 26th Ave NW,Norman,OK,73069,35.22262,-97.48286
816,7231 SE 29th St,Midwest City,OK,73110,35.43737,-97.3983
817,5801 N May Ave,Oklahoma City,OK,73112,35.53047,-97.56672
818,6421 SW 3rd St,Oklahoma City,OK,73128,35.46312,-97.62872
819,2135 W Memorial Rd,Oklahoma City,OK,73134,35.61098,-97.55152
820,1409 W I 240 Service Rd,Oklahoma City,OK,73159,35.39307,-97.53946
821,2700 S Service Rd,Moore,OK,73160,35.31373,-97.48721
822,9055 N 121st East Ave,Owasso,OK,74055,36.29046,-95.83965
823,1940 N Perkins Rd,Stillwater,OK,74075,36.14153,-97.05412
824,7777 East Apache,Tulsa,OK,74115,36.19754028,-95.89532471
825,7777 E APACHE ST,TULSA,OK,74115,36.190897,-95.889833
826,7308 S Olympia Ave,Tulsa,OK,74132,36.05835,-96.00493
827,10303 E 71st St,Tulsa,OK,74133,36.064,-95.86082
828,5520 E Skelly Dr,Tulsa,OK,74135,36.09981,-95.91425
829,900 W Shawnee St,Muskogee,OK,74401,35.77232,-95.37135
830,190 E Stacy Rd,Allen,TX,75002,33.12574,-96.66155
831,6060 Long Prairie Rd,Flower Mound,TX,75028,33.06956,-97.08073
832,5299 Eldorado Pkwy,Frisco,TX,75033,33.17304,-96.84138
833,3333 Preston Rd,Frisco,TX,75034,33.10827,-96.80879
834,3171 N George Bush Fwy,Garland,TX,75040,32.94538,-96.61415
835,4017 W Airport Fwy,Irving,TX,75062,32.83676,-96.9872
836,1900 Market Place Blvd,Irving,TX,75063,32.92071,-96.97224
837,2601 S Stemmons Fwy,Lewisville,TX,75067,32.99975,-96.96357
838,1751 N Central Expy,McKinney,TX,75070,33.21422,-96.64005
839,2800 N Central Expy,Plano,TX,75074,33.03558,-96.70363
840,995 E I-30,Rockwall,TX,75087,32.90414,-96.45299
841,823 N Creek Dr,Sherman,TX,75092,33.68396,-96.6097
842,731 N Highway 67,Cedar Hill,TX,75104,32.60197,-96.93716
843,2701 N Mesquite Dr,Mesquite,TX,75150,32.80206,-96.62973
844,1168 W Highway 287 Byp,Waxahachie,TX,75165,32.42318,-96.84319
845,9378 N Central Expy,Dallas,TX,75231,32.87547,-96.76774
846,Dallas Love Airport,Dallas,TX,75235,32.8347702,-96.85153198
847,4255 Lyndon B Johnson Fwy,Farmers Branch,TX,75244,32.92736,-96.83741
848,4245 Lyndon B Johnson Fwy,Farmers Branch,TX,75244,32.927372,-96.837612
849,5301 Belt Line Rd,Dallas,TX,75254,32.9562,-96.81579
850,Dallas Fort Worth Intl,Dallas,TX,75261,32.903199,-97.057367
851,Dallas Fort Worth Intl,Dallas,TX,75261,32.903199,-97.057367
852,Dallas Fort Worth Intl,Dallas,TX,75261,32.903199,-97.057367
853,Dallas Fort Worth Intl,Dallas,TX,75261,32.903199,-97.057367
854,Dallas Fort Worth Intl,Dallas,TX,75261,32.903199,-97.057367
855,Dallas Fort Worth Intl,Dallas,TX,75261,32.903199,-97.057367
856,3200 East Airfield Dr,Dallas,TX,75261,32.874195,-97.015666
857,3200 E Airfield Dr,Dallas,TX,75261,32.87420444,-97.01566704
858,3200 E AIRFIELD DR,DALLAS,TX,75261,32.888407,-97.015803
859,4210 Saint Michael Dr,Texarkana,TX,75503,33.45426,-94.09483
860,422 W Loop 281,Longview,TX,75605,32.53908,-94.75865
861,5514 S Broadway Ave,Tyler,TX,75703,32.28823,-95.30126
862,4505 S Medford Dr,Lufkin,TX,75901,31.30945,-94.72327
863,1730 Pleasant Pl,Arlington,TX,76015,32.67732,-97.13739
864,12820 South Fwy,Burleson,TX,76028,32.57132,-97.32087
865,1515 W State Hwy 114,Grapevine,TX,76051,32.92895,-97.09608
866,869 NE Mall Blvd,Hurst,TX,76053,32.82703,-97.20299
867,2041 Highway 287 N,Mansfield,TX,76063,32.59735,-97.15076
868,138 E Interstate 20,Weatherford,TX,76087,32.7272,-97.78352
869,6750 West Fwy,Fort Worth,TX,76116,32.73702,-97.43381
870,5604 SW Loop 820,Fort Worth,TX,76132,32.68583,-97.40889
871,5944 Quebec St,Fort Worth,TX,76135,32.80685,-97.42737
872,9581 Sage Meadow Trl,Fort Worth,TX,76177,32.9122,-97.31578
873,1800 S Loop 288,Denton,TX,76205,33.19236,-97.10006
874,4100 Kemp Blvd,Wichita Falls,TX,76308,33.86848,-98.53701
875,3550 S General Bruce Dr,Temple,TX,76504,31.09336,-97.38275
876,3209 E Central Texas Expy,Killeen,TX,76543,31.08773,-97.70679
877,4627 S Jack Kultgen Expy,Waco,TX,76706,31.49966,-97.14887
878,4325 Sunset Dr,San Angelo,TX,76901,31.43384,-100.5026
879,George Bush Intl,Houston,TX,77032,29.97841917,-95.3423515
880,George Bush Intl,Houston,TX,77032,29.97841917,-95.3423515
881,George Bush Intl,Houston,TX,77032,29.97841917,-95.3423515
882,George Bush Intl,Houston,TX,77032,29.97841917,-95.3423515
883,George Bush Intl,Houston,TX,77032,29.97841917,-95.3423515
884,IAH George Bush Terminal C,Houston,TX,77032,29.96709442,-95.33636475
885,2800 North Terminal Rd,Houston,TX,77032,29.98731337,-95.34910664
886,2800 N Terminal Rd,Houston,TX,77032,29.983924,-95.332202
887,8210 S Gessner Dr,Houston,TX,77036,29.68804,-95.5334
888,10777 North Fwy,Houston,TX,77037,29.92292,-95.41408
889,13238 Northwest Fwy,Houston,TX,77040,29.84867,-95.50125
890,6006 E Sam Houston Pkwy N,Houston,TX,77049,29.81203,-95.16189
891,9670 Old Katy Rd,Houston,TX,77055,29.78591,-95.5306
892,5133 Richmond Ave,Houston,TX,77056,29.73087,-95.46269
893,7800 Airport Blvd,Houston,TX,77061,29.644407,-95.332896
894,7800 Airport Blvd,Houston,TX,77061,29.644407,-95.332896
895,7800 Airport Blvd,Houston,TX,77061,29.644407,-95.332896
896,17713 Tomball Pkwy,Houston,TX,77064,29.94538,-95.52752
897,7318 Fm 1960 Rd W,Houston,TX,77070,29.96758,-95.53821
898,2480 Highway 6 S,Houston,TX,77077,29.73618,-95.64632
899,510 Gulfgate Center Mall,Houston,TX,77087,29.69837,-95.29388
900,7034 Highway 6 N,Houston,TX,77095,29.88116,-95.64338
901,100 Meyerland Plaza Mall,Houston,TX,77096,29.68556,-95.46302
902,501 Interstate 45 S,Conroe,TX,77301,30.31289,-95.47315
903,20408 Highway 59 N,Humble,TX,77338,30.01095,-95.26201
904,19125 W Lake Houston Pkwy,Humble,TX,77346,29.99633,-95.16437
905,1550 Lake Woodlands Dr,The Woodlands,TX,77380,30.16991,-95.4585
906,19503 Interstate 45,Spring,TX,77388,30.04996,-95.43225
907,5340 W Grand Pkwy S,Richmond,TX,77406,29.69598,-95.77679
908,25525 Highway 290,Cypress,TX,77429,29.96535,-95.69091
909,20290 Katy Fwy (Fry Rd Exit),Katy,TX,77449,29.78739,-95.72424
910,24230 Commercial Dr,Rosenberg,TX,77471,29.54692,-95.75382
911,16980 Southwest Fwy,Sugar Land,TX,77479,29.58874,-95.63859
912,5692 Fairmont Pkwy,Pasadena,TX,77505,29.64645,-95.15403
913,4620 Garth Rd,Baytown,TX,77521,29.77313,-94.97634
914,104 Highway 332 E,Lake Jackson,TX,77566,29.04438,-95.45701
915,2510 Gulf Fwy S,League City,TX,77573,29.473,-95.09503
916,2632 Smith Ranch Rd,Pearland,TX,77584,29.55917,-95.38527
917,19425 Gulf Fwy,Webster,TX,77598,29.54381,-95.13989
918,8725 Memorial Blvd,Port Arthur,TX,77640,29.9449,-93.99632
919,5885 Eastex Fwy,Beaumont,TX,77706,30.12358,-94.1555
920,805 Texas Ave S,College Station,TX,77840,30.62594,-96.32975
921,7800 N Navarro St,Victoria,TX,77904,28.86641,-96.99481
922,2455 Monarch Dr,Laredo,TX,78045,27.61117,-99.46931
923,7905 San Dario Ave,Laredo,TX,78045,27.57237,-99.50078
924,187 Creekside Wy,New Braunfels,TX,78130,29.73042,-98.07238
925,8210 Agora Pkwy,Selma,TX,78154,29.56765,-98.32813
926,125 NW Loop 410,San Antonio,TX,78216,29.52291,-98.49481
927,9800 Airport Blvd,San Antonio,TX,78216,29.52800941,-98.47541046
928,9800 Airport Blvd,San Antonio,TX,78216,29.52800941,-98.47541046
929,3142 SE Military Dr,San Antonio,TX,78223,29.35033,-98.43666
930,2003 N Loop 1604 E,San Antonio,TX,78232,29.60877,-98.46061
931,6001 NW Loop 410,San Antonio,TX,78238,29.47621,-98.61181
932,6218 Wood Glen Dr,San Antonio,TX,78244,29.482983,-98.350461
933,5419 W Loop 1604 N,San Antonio,TX,78253,29.48853,-98.71017
934,17414 La Cantera,San Antonio,TX,78257,29.60542,-98.59904
935,4717 S Padre Island Dr,Corpus Christi,TX,78411,27.71429,-97.38745
936,3400 E Expressway 83,McAllen,TX,78501,26.19637,-98.26258
937,700 S Jackson Rd,McAllen,TX,78503,26.19321,-98.20578
938,8012 N 10th St,McAllen,TX,78504,26.27566,-98.21494
939,2701 Pablo Kisel Blvd,Brownsville,TX,78526,25.96041,-97.50654
940,761 Hwy 71 W,Bastrop,TX,78602,30.11197,-97.35535
941,11066 Pecan Park Blvd,Cedar Park,TX,78613,30.46875,-97.80062
942,1015 W University Ave,Georgetown,TX,78628,30.62999,-97.69348
943,19000 Limestone Commercial Dr,Pflugerville,TX,78660,30.47323,-97.59681
944,3201 South Interstate 35,Round Rock,TX,78664,30.47612,-97.67114
945,1050 McKinley Place Dr,San Marcos,TX,78666,29.85261,-97.95568
946,3600 Presidential Blvd,Austin,TX,78719,30.20263173,-97.66749814
947,3600 Presidential Blvd,Austin,TX,78719,30.20265961,-97.66545105
948,1201 Barbara Jordan Blvd,Austin,TX,78723,30.30679,-97.71063
949,4970 W Highway 290,Austin,TX,78735,30.23636,-97.82079
950,12909 Shops Pkwy,Bee Cave,TX,78738,30.30527,-97.94418
951,9600 S Interstate 35,Austin,TX,78748,30.15919,-97.79183
952,9607 Research Blvd,Austin,TX,78759,30.38843,-97.74117
953,101 Westgate Pkwy,Amarillo,TX,79121,35.18409,-101.93366
954,2420 W Loop 289,Lubbock,TX,79407,33.557116,-101.940202
955,4310 Buffalo Gap Rd,Abilene,TX,79606,32.40139,-99.76168
956,2511 W Loop 250 N,Midland,TX,79705,32.03488,-102.11766
957,6300 E Highway 191,Odessa,TX,79762,31.90023,-102.3142
958,815 Sunland Park Dr,El Paso,TX,79912,31.81801,-106.54998
959,8889 Gateway Blvd W,El Paso,TX,79925,31.77238,-106.37412
960,6701 Convair Rd,El Paso,TX,79925,31.79889143,-106.3956282
961,1834 Joe Battle Blvd,El Paso,TX,79936,31.75535,-106.26518
962,3511 N Salida Ct,Aurora,CO,80011,39.76289,-104.77895
963,13801 E Mississippi Ave,Aurora,CO,80012,39.69776,-104.82759
964,5999 S Southlands Pkwy,Aurora,CO,80016,39.60779,-104.71162
965,21800 E 19th Ave,Aurora,CO,80019,39.743685,-104.709335
966,9369 Sheridan Blvd,Westminster,CO,80031,39.86664,-105.05618
967,6707 S Vine St,Centennial,CO,80122,39.59452,-104.96512
968,5395 S Wadsworth Blvd,Lakewood,CO,80123,39.61967,-105.0923
969,8682 Park Meadows Center Dr,Lone Tree,CO,80124,39.55738,-104.87546
970,11267 Pikes Peak Dr,Parker,CO,80138,39.51193,-104.76173
971,4100 E Mexico Ave,Denver,CO,80222,39.68535,-104.93802
972,384 S Wadsworth Blvd,Lakewood,CO,80226,39.7097,-105.08095
973,104 W 104th Ave,Denver,CO,80234,39.88393,-104.98887
974,1740 30th St,Boulder,CO,80301,40.0168,-105.25305
975,1400 Denver West Blvd,Lakewood,CO,80401,39.73739,-105.15429
976,210 Ken Pratt Blvd,Longmont,CO,80501,40.15397,-105.0966
977,4040 S College Ave,Fort Collins,CO,80525,40.530648,-105.075644
978,6075 Sky Pond Dr,Loveland,CO,80538,40.41952,-104.9896
979,4210 Centerplace Dr,Greeley,CO,80634,40.39425,-104.7464
980,7675 N Academy Blvd,Colorado Springs,CO,80920,38.94366,-104.79782
981,3150 New Center Point,Colorado Springs,CO,80922,38.87812,-104.71825
982,5890 N Elizabeth St,Pueblo,CO,81008,38.33452,-104.62043
983,585 24 1/2 Rd,Grand Junction,CO,81505,39.08966,-108.59938
984,601 SE Wyoming Blvd,Casper,WY,82609,42.8471,-106.26553
985,2068 Bridgeview Blvd,Twin Falls,ID,83301,42.59666,-114.45315
986,2404 S 25th E,Idaho Falls,ID,83404,43.47745,-111.98718
987,16485 N Marketplace Blvd,Nampa,ID,83687,43.61193,-116.5927
988,8363 W Franklin Rd,Boise,ID,83709,43.60384,-116.28631
989,425 W Wilbur Ave,Coeur D Alene,ID,83815,47.73777,-116.79408
990,763 W Grasslands Dr,American Fork,UT,84003,40.38413,-111.81953
991,360 N Station Pkwy,Farmington,UT,84025,40.986031,-111.902488
992,309 E University Pkwy,Orem,UT,84058,40.27458,-111.68841
993,35 E 11400 S,Sandy,UT,84070,40.54576,-111.89025
994,7643 Jordan Landing Blvd,West Jordan,UT,84084,40.61178,-111.98365
995,1209 Center Dr,Park City,UT,84098,40.7209,-111.53933
996,5181 S State St,Murray,UT,84107,40.65857,-111.88683
997,261 W 2100 S,Salt Lake City,UT,84115,40.72417,-111.89813
998,1475 N Main St,Logan,UT,84341,41.75949,-111.8364
999,1093 W Riverdale Rd,Ogden,UT,84405,41.17511,-112.0051
1000,844 W Telegraph St,Washington,UT,84780,37.12879,-113.52332
1001,1949 E Camelback Rd,Phoenix,AZ,85016,33.5081,-112.04044
1002,12645 N 48th St,Phoenix,AZ,85032,33.60075,-111.97646
1003,5051 East Ray Rd,Phoenix,AZ,85044,33.31787,-111.9738
1004,2727 W Thunderbird Rd,Phoenix,AZ,85053,33.60964,-112.11817
1005,2440 W Happy Valley Rd,Phoenix,AZ,85085,33.7141,-112.11225
1006,6315 E Southern Ave,Mesa,AZ,85206,33.39205,-111.69492
1007,3100 W Frye Rd,Chandler,AZ,85226,33.29895,-111.89592
1008,15449 N Hayden Rd,Scottsdale,AZ,85260,33.62631,-111.89328
1009,1900 E Rio Salado Pkwy,Tempe,AZ,85281,33.43007,-111.90426
1010,2288 E Williams Field Rd,Gilbert,AZ,85295,33.30883,-111.74086
1011,8290 W Bell Rd,Glendale,AZ,85308,33.64034,-112.23268
1012,1364 S Yuma Palms Pkwy,Yuma,AZ,85365,32.70244,-114.60653
1013,13711 W Bell Rd,Surprise,AZ,85374,33.63682,-112.35124
1014,10035 W McDowell Rd,Avondale,AZ,85392,33.46307,-112.27569
1015,1408 N Litchfield Rd,Goodyear,AZ,85395,33.46141,-112.36126
1016,2200 El Mercado Loop,Sierra Vista,AZ,85635,31.52957,-110.25926
1017,575 E Wetmore Rd,Tucson,AZ,85705,32.28834,-110.96308
1018,5311 S Calle Santa Cruz,Tucson,AZ,85706,32.15526,-110.98933
1019,6025 E Broadway Blvd,Tucson,AZ,85711,32.22218,-110.86361
1020,11855 N Oracle Rd,Oro Valley,AZ,85737,32.42154,-110.93829
1021,5005 E Marketplace Dr,Flagstaff,AZ,86004,35.22235,-111.57356
1022,3085 Gateway Blvd,Prescott,AZ,86303,34.55029,-112.41232
1023,3741 Ellison Road NW,Albuquerque,NM,87114,35.20694,-106.65593
1024,55 Hotel Cir NE,Albuquerque,NM,87123,35.08233,-106.5271
1025,3520 E Main St,Farmington,NM,87402,36.7508,-108.1617
1026,3533 Zafarano Dr,Santa Fe,NM,87507,35.63974,-106.01038
1027,2280 E Lohman Ave,Las Cruces,NM,88001,32.31122,-106.7512
1028,611 Marks St,Henderson,NV,89014,36.06455,-115.0381
1029,2121 S Casino Dr,Laughlin,NV,89029,35.15777206,-114.5774231
1030,4500 W Tropicana Ave,Las Vegas,NV,89103,36.100973,-115.194525
1031,3700 West Flamingo Rd,Las Vegas,NV,89103,36.11598462,-115.1863423
1032,2050 N Rainbow Blvd,Las Vegas,NV,89108,36.19649,-115.23838
1033,Planet Hollywood Miracle Mile,Las Vegas,NV,89109,36.13609695,-115.1574707
1034,6950 Arroyo Crossing Pkwy,Las Vegas,NV,89113,36.06438,-115.24353
1035,3820 S Maryland Pkwy,Las Vegas,NV,89119,36.11976,-115.13571
1036,3900 Las Vegas Blvd S,Las Vegas,NV,89119,36.09577082,-115.1745198
1037,6455 N Decatur Blvd,Las Vegas,NV,89131,36.27685,-115.20905
1038,10950 W Charleston Blvd,Las Vegas,NV,89135,36.15971,-115.33564
1039,1315 Scheels Dr,Sparks,NV,89434,39.52947,-119.71974
1040,155 Los Altos Pkwy,Sparks,NV,89436,39.5798,-119.74172
1041,5575 S Virginia St,Reno,NV,89502,39.47462,-119.78983
1042,Reno-Tahoe Intl,Reno,NV,89502,39.50653076,-119.7759171
1043,Reno Airport Terminal C Gate 5,Reno,NV,89502,39.49488449,-119.7468872
1044,911 Topsy Ln,Carson City,NV,89705,39.10721,-119.77569
1045,6801 Hollywood Blvd,Hollywood,CA,90028,34.10202026,-118.3404312
1046,1015 N La Brea Ave,West Hollywood,CA,90038,34.08913,-118.34447
1047,2909 Los Feliz Blvd,Los Angeles,CA,90039,34.12777,-118.2653
1048,Los Angeles Intl Airport,Los Angeles,CA,90045,33.9455986,-118.3923035
1049,Los Angeles Intl Airport,Los Angeles,CA,90045,33.9455986,-118.3923035
1050,Los Angeles Intl Airport,Los Angeles,CA,90045,33.9455986,-118.3923035
1051,Los Angeles Intl Airport,Los Angeles,CA,90045,33.9455986,-118.3923035
1052,Los Angeles Intl Airport,Los Angeles,CA,90045,33.9455986,-118.3923035
1053,1 World Way,Los Angeles,CA,90045,33.944102,-118.397594
1054,1 World Way,Los Angeles,CA,90045,33.944102,-118.397594
1055,1 World Way,Los Angeles,CA,90045,33.94410007,-118.3975956
1056,11301 W Pico Blvd,Los Angeles,CA,90064,34.03557,-118.43963
1057,230 Towne Center Dr,Compton,CA,90220,33.87703,-118.21987
1058,6000 Sepulveda Blvd,Culver City,CA,90230,33.98495,-118.39438
1059,10799 Washington Blvd,Culver City,CA,90232,34.01612,-118.40704
1060,12118 Lakewood Blvd,Downey,CA,90242,33.92553,-118.12922
1061,740 S Pacific Coast Hwy,El Segundo,CA,90245,33.90639,-118.39398
1062,5000 W 147th St,Hawthorne,CA,90250,33.89746,-118.36549
1063,3675 Pacific Coast Hwy,Torrance,CA,90505,33.80557,-118.34977
1064,24120 Garnier St,Torrance,CA,90505,33.80676,-118.33671
1065,2415 Via Campo,Montebello,CA,90640,34.03184,-118.1217
1066,12989 Park Plaza Dr,Cerritos,CA,90703,33.86913,-118.05612
1067,12731 Towne Center Dr,Cerritos,CA,90703,33.87165,-118.06013
1068,5101 Clark Ave,Lakewood,CA,90712,33.85148,-118.13431
1069,2701 Cherry Ave,Signal Hill,CA,90755,33.80672,-118.16818
1070,4100 Donald Douglas Dr,Long Beach,CA,90808,33.81873,-118.139311
1071,1470 Mountain Ave,Duarte,CA,91010,34.13641,-117.98447
1072,440 S Lake Ave,Pasadena,CA,91101,34.13835,-118.13192
1073,3415 E Foothill Blvd,Pasadena,CA,91107,34.15116,-118.08023
1074,21601 Victory Blvd,Canoga Park,CA,91303,34.18907,-118.60068
1075,9330 N Winnetka Ave,Chatsworth,CA,91311,34.24022,-118.5705
1076,2000 Anchor Ct,Thousand Oaks,CA,91320,34.1949,-118.92239
1077,19350 Nordhoff Way,Northridge,CA,91324,34.23372,-118.55599
1078,19929 Rinaldi St,Northridge,CA,91326,34.27746,-118.56891
1079,13510 Paxton St,Pacoima,CA,91331,34.27203,-118.42396
1080,26531 Bouquet Canyon Rd,Santa Clarita,CA,91350,34.4288,-118.538
1081,29011 the Old Rd,Valencia,CA,91355,34.44469,-118.61062
1082,390 N Moorpark Rd,Thousand Oaks,CA,91360,34.18242,-118.87414
1083,6100 Variel Ave,Woodland Hills,CA,91367,34.18114,-118.59214
1084,4500 Van Nuys Blvd,Sherman Oaks,CA,91403,34.15328,-118.44822
1085,1501 N Victory Pl,Burbank,CA,91502,34.18841,-118.32765
1086,530 N Victory Blvd,Burbank,CA,91502,34.1794,-118.31861
1087,3873 Grand Ave,Chino,CA,91710,33.99653,-117.72016
1088,12260 Foothill Blvd,Rancho Cucamonga,CA,91739,34.10778,-117.53806
1089,1307 E Gladstone St,Glendora,CA,91740,34.115,-117.83695
1090,17545 Gale Ave,City of Industry,CA,91748,33.99749,-117.92264
1091,12281 Limonite Ave,Eastvale,CA,91752,33.97835,-117.54988
1092,8960 Central Ave,Montclair,CA,91763,34.09145,-117.69193
1093,5250 Ontario Mills Pkwy,Ontario,CA,91764,34.06822,-117.53781
1094,511 W Arrow Hwy,San Dimas,CA,91773,34.10417,-117.81638
1095,1800 Plaza Dr,West Covina,CA,91790,34.07122,-117.93084
1096,59 N Broadway,Chula Vista,CA,91910,32.65137,-117.09551
1097,2015 Birch Rd,Chula Vista,CA,91915,32.62193,-116.96385
1098,6100 Paseo Del Norte,Carlsbad,CA,92011,33.12047,-117.31857
1099,149 Fletcher Pkwy,El Cajon,CA,92020,32.80619,-116.9631
1100,1046 N El Camino Real,Encinitas,CA,92024,33.0665,-117.26636
1101,1138 W Valley Pkwy,Escondido,CA,92025,33.11716,-117.09881
1102,8657 Villa La Jolla Dr,La Jolla,CA,92037,32.86613,-117.23171
1103,2110 Vista Way,Oceanside,CA,92054,33.18211,-117.34586
1104,9680 Mission Gorge Rd,Santee,CA,92071,32.83972,-116.98615
1105,567 Grand Ave,San Marcos,CA,92078,33.13621,-117.17438
1106,3707 N Harbor Dr,San Diego,CA,92101,32.72950463,-117.1962208
1107,3707 N Harbor Dr,San Diego,CA,92101,32.72950463,-117.1962208
1108,3665 N Harbor Dr,San Diego,CA,92101,32.72950731,-117.1959351
1109,3665 N Harbor Dr,San Diego,CA,92101,32.72950731,-117.1959351
1110,5151 Mission Center Rd,San Diego,CA,92108,32.76957,-117.15275
1111,920 Morena Blvd,San Diego,CA,92110,32.76605,-117.19917
1112,7069 Consolidated Way,San Diego,CA,92121,32.87792,-117.16322
1113,9540 Mira Mesa Blvd,San Diego,CA,92126,32.9178,-117.11933
1114,11160 Rancho Carmel Dr,San Diego,CA,92128,32.97975,-117.08412
1115,1650 2nd St,Beaumont,CA,92223,33.92531,-116.94784
1116,2901 S Dogwood,El Centro,CA,92243,32.76996,-115.53436
1117,79220 Hwy 111,La Quinta,CA,92253,33.70916,-116.2824
1118,72369 Hwy 111,Palm Desert,CA,92260,33.72677,-116.40462
1119,34295 Monterey Ave,Rancho Mirage,CA,92270,33.79895,-116.39142
1120,18811 Bear Valley Rd,Apple Valley,CA,92308,34.46971,-117.25111
1121,12133 Mall Blvd,Victorville,CA,92392,34.47152,-117.35109
1122,888 Harriman Pl,San Bernardino,CA,92408,34.06682,-117.26701
1123,3900 Tyler St,Riverside,CA,92503,33.91397,-117.46509
1124,2852 Canyon Springs Pkwy,Riverside,CA,92507,33.94123,-117.27974
1125,27220 Eucalyptus,Moreno Valley,CA,92555,33.938248,-117.186092
1126,25080 Madison Ave,Murrieta,CA,92562,33.55811,-117.19904
1127,30178 Haun Rd,Menifee,CA,92584,33.68248,-117.17245
1128,40480 Winchester Rd,Temecula,CA,92591,33.52861,-117.15303
1129,32937 US Hwy 79,Temecula,CA,92592,33.48408,-117.08102
1130,2592 White Rd,Irvine,CA,92614,33.67963,-117.8438
1131,16171 Lake Forest Dr,Irvine,CA,92618,33.6305,-117.72491
1132,901 S Coast Dr,Costa Mesa,CA,92626,33.68853,-117.89294
1133,15272 Bolsa Chica Rd,Huntington Beach,CA,92649,33.74071,-118.04122
1134,32501 Calle Perfecto,San Juan Capistrano,CA,92675,33.48796,-117.66604
1135,500 Westminster Mall Rd,Westminster,CA,92683,33.75056,-118.0145
1136,25422 El Paseo,Mission Viejo,CA,92691,33.59102,-117.67273
1137,2982 El Camino Real,Tustin,CA,92782,33.72112,-117.79515
1138,321 W KATELLA AVE,ANAHEIM,CA,92802,33.805735,-117.911495
1139,2750 Saturn St,Brea,CA,92821,33.90802,-117.86054
1140,123 Orangefair Mall,Fullerton,CA,92832,33.85811,-117.92326
1141,120 E Imperial Hwy,Fullerton,CA,92835,33.91623,-117.93178
1142,2375 N Tustin St,Orange,CA,92865,33.82801,-117.83397
1143,3741 W Chapman Ave,Orange,CA,92868,33.79053,-117.8923
1144,1385 Pico St,Corona,CA,92881,33.85893,-117.53743
1145,2430 Tuscany St,Corona,CA,92881,33.82326,-117.51825
1146,23000 Savi Ranch Pkwy,Yorba Linda,CA,92887,33.87387,-117.73653
1147,2300 N Rose Ave,Oxnard,CA,93036,34.22368,-119.15731
1148,1173 Simi Town Center W,Simi Valley,CA,93065,34.2857,-118.77777
1149,7090 Market Place Dr,Goleta,CA,93117,34.42952,-119.87551
1150,4145 S Mooney Blvd,Visalia,CA,93277,36.29333,-119.31677
1151,8300 Rosedale Hwy,Bakersfield,CA,93312,35.38609,-119.09449
1152,255 Madonna Rd,San Luis Obispo,CA,93405,35.26179,-120.67419
1153,2326 S Bradley Rd,Santa Maria,CA,93455,34.9176,-120.41902
1154,39330 10th St W,Palmdale,CA,93551,34.59753,-118.14507
1155,655 W Herndon Ave,Clovis,CA,93612,36.84002,-119.72627
1156,7550 N Blackstone Ave,Fresno,CA,93720,36.84606,-119.78634
1157,390 Northridge Mall,Salinas,CA,93906,36.71387,-121.66104
1158,101 General Stillwell Dr,Marina,CA,93933,36.66582,-121.81369
1159,200 Colma Blvd,Colma,CA,94014,37.67639,-122.46474
1160,715 E El Camino Real,Mountain View,CA,94040,37.37554169,-122.0632401
1161,2460 E Charleston Rd,Mountain View,CA,94043,37.42341,-122.09709
1162,1250 El Camino Real,San Bruno,CA,94066,37.63924,-122.42035
1163,1127 Industrial Rd,San Carlos,CA,94070,37.5023,-122.2441
1164,275 S Airport Blvd,South San Francisco,CA,94080,37.646909,-122.405496
1165,275 S Airport Blvd,South San Francisco,CA,94080,37.646909,-122.405496
1166,1717 Harrison St,San Francisco,CA,94103,37.76845,-122.41286
1167,200 FOLSOM ST,SAN FRANCISCO,CA,94105,37.789343,-122.392474
1168,200 FOLSOM ST,SAN FRANCISCO,CA,94105,37.789343,-122.392474
1169,S McDonnell Rd and S Link Rd,San Francisco,CA,94128,37.61351019,-122.3929598
1170,S McDonnell Rd and S Link Rd,San Francisco,CA,94128,37.61351019,-122.3929598
1171,S McDonnell Rd and S Link Rd,San Francisco,CA,94128,37.626794,-122.400681
1172,3260 Buskirk Ave,Pleasant Hill,CA,94523,37.93521,-122.05922
1173,5839 Lone Tree Way,Antioch,CA,94531,37.964141,-121.736129
1174,1547 Gateway Blvd,Fairfield,CA,94533,38.26033,-122.0561
1175,1490 Fitzgerald Rd,Pinole,CA,94564,37.99031,-122.30608
1176,4820 Dublin Blvd,Dublin,CA,94568,37.70378,-121.88248
1177,31350 Courthouse Dr,Union City,CA,94587,37.60097,-122.06425
1178,1182 Admiral Callaghan Ln,Vallejo,CA,94591,38.13445,-122.21502
1179,3700 Mandela Pkwy,Oakland,CA,94608,37.82737,-122.28677
1180,Oakland International,Oakland,CA,94621,37.739909,-122.203782
1181,9 Airport Dr,Oakland,CA,94621,37.71666124,-122.2087041
1182,700 Du Bois St,San Rafael,CA,94901,37.96713,-122.52033
1183,1801 4th St,San Rafael,CA,94901,37.97386,-122.53847
1184,7011 Camino Arroyo,Gilroy,CA,95020,37.00486,-121.5517
1185,63 Ranch Ave,Milpitas,CA,95035,37.42792,-121.92312
1186,2650 41st Ave,Soquel,CA,95073,36.98536,-121.96319
1187,5065 Almaden Expy,San Jose,CA,95118,37.25625,-121.87728
1188,181 Curtner Ave,San Jose,CA,95125,37.30129,-121.86671
1189,3090 Stevens Creek Blvd,San Jose,CA,95128,37.32292,-121.9496
1190,5400 Pacific Ave,Stockton,CA,95207,37.99966,-121.31401
1191,2550 Naglee Rd,Tracy,CA,95304,37.75649,-121.45985
1192,1764 W Olive Ave,Merced,CA,95348,37.31729,-120.49835
1193,3900 Sisk Rd,Modesto,CA,95356,37.69499,-121.06459
1194,2339 Claribel Rd,Riverbank,CA,95367,37.71356,-120.95597
1195,1950 Santa Rosa Ave,Santa Rosa,CA,95407,38.41941,-122.70947
1196,1760 Grass Valley Hwy,Auburn,CA,95603,38.92903,-121.08617
1197,6110 Birdcage Centre Ln,Citrus Heights,CA,95610,38.67561,-121.27533
1198,2445 Iron Point Rd,Folsom,CA,95630,38.64407,-121.12036
1199,1236 Galleria Blvd,Roseville,CA,95678,38.7739,-121.26114
1200,1621 E Monte Vista Ave,Vacaville,CA,95688,38.3675,-121.9653
1201,9131 W Stockton Blvd,Elk Grove,CA,95758,38.42589,-121.39805
1202,2165 Bronze Star Dr,Woodland,CA,95776,38.67261,-121.72613
1203,1901 Arden Way,Sacramento,CA,95815,38.59877,-121.4214
1204,3690 N Freeway Blvd,Sacramento,CA,95834,38.63771,-121.49574
1205,6850 Airport Blvd,Sacramento,CA,95837,38.692817,-121.591677
1206,2005 Forest Ave,Chico,CA,95928,39.72676,-121.80002
1207,1010 Hilltop Dr,Redding,CA,96003,40.59259,-122.35969
1208,98-051 Kamehameha Hwy,Aiea,HI,96701,21.38454,-157.9499
1209,6 KAI ALA DR,LAHAINA,HI,96761,20.938409,-156.691721
1210,2424 KALAKAUA AVE,HONOLULU,HI,96815,21.276067,-157.82509
1211,478 Alakawa St,Honolulu,HI,96817,21.31822,-157.87445
1212,300 Rodgers Blvd,Honolulu,HI,96819,21.33563362,-157.9186492
1213,300 Rodgers Blvd,Honolulu,HI,96819,21.33563362,-157.9186492
1214,300 Rodgers Blvd,Honolulu,HI,96819,21.33563362,-157.9186492
1215,300 Rodgers Blvd,Honolulu,HI,96819,21.33563362,-157.9186492
1216,300 Rodgers Blvd,Honolulu,HI,96819,21.332564,-157.919781
1217,300 Rodgers Blvd,Honolulu,HI,96819,21.332563,-157.919785
1218,3055 SW Cedar Hills Blvd,Beaverton,OR,97005,45.4975,-122.81051
1219,18085 NW Evergreen Pkwy,Hillsboro,OR,97006,45.53881,-122.86276
1220,1148 NW Norman Ave,Gresham,OR,97030,45.50547,-122.43746
1221,7041 SW Nyberg St,Tualatin,OR,97062,45.38541,-122.74931
1222,9630 SE 82nd Ave,Portland,OR,97086,45.45332,-122.5769
1223,2055 N Tomahawk Island Dr,Portland,OR,97217,45.61493,-122.68615
1224,9739 NE Cascades Pkwy,Portland,OR,97220,45.5752,-122.5616
1225,3801 Center St NE,Salem,OR,97301,44.94037,-122.98943
1226,3300 Gateway St,Springfield,OR,97477,44.08147,-123.04516
1227,2370 Poplar Dr,Medford,OR,97504,42.35343,-122.86826
1228,63455 N Highway 97,Bend,OR,97701,44.10269,-121.30092
1229,31601 Pacific Hwy S,Federal Way,WA,98003,47.31826,-122.3153
1230,457 120th Ave NE,Bellevue,WA,98005,47.614,-122.18238
1231,6000 E Lake Sammamish Pkwy SE,Issaquah,WA,98029,47.54936,-122.0413
1232,19800 44TH AVE W,LYNNWOOD,WA,98036,47.81897,-122.29496
1233,19225 Alderwood Mall Pkwy,Lynnwood,WA,98036,47.82335,-122.26959
1234,330 NE Northgate Way,Seattle,WA,98125,47.70915,-122.32492
1235,17364 Southcenter Pkwy,Tukwila,WA,98188,47.44764,-122.26
1236,1130 SE Everett Mall Way,Everett,WA,98208,47.90992,-122.21731
1237,4281 Meridian St,Bellingham,WA,98226,48.79632,-122.48931
1238,4255 Mitchell Way,Bellingham,WA,98226,48.789283,-122.534385
1239,1851 Marketplace Dr,Burlington,WA,98233,48.45072,-122.33978
1240,16924 Twin Lakes Ave,Marysville,WA,98271,48.15018,-122.1925
1241,4102 S Meridian,Puyallup,WA,98373,47.15187,-122.29508
1242,9551 Ridgetop Blvd NW,Silverdale,WA,98383,47.65515,-122.68004
1243,20209 34th Ave E,Spanaway,WA,98387,47.071474,-122.52623
1244,2214 S 48th St,Tacoma,WA,98409,47.2135,-122.46604
1245,625 Black Lake Blvd SW,Olympia,WA,98502,47.04248,-122.93396
1246,1240 Marvin Rd NE,Lacey,WA,98516,47.05791,-122.7621
1247,2321 S 1st St,Yakima,WA,98903,46.56846,-120.48378
1248,15223 E Indiana Ave,Spokane,WA,99216,47.67261,-117.20061
1249,9970 N Newport Hwy,Spokane,WA,99218,47.74905,-117.39824
1250,6809 W Canal Dr,Kennewick,WA,99336,46.22485,-119.21224
1251,5000 West Intl Airport Rd,Anchorage,AK,99502,61.17349304,-149.9761429
1252,Anchorage Airport Concourse C,Anchorage,AK,99502,61.17665863,-149.9606323
1253,1200 N Muldoon Rd,Anchorage,AK,99504,61.2256,-149.74642
1254,800 E Dimond Blvd,Anchorage,AK,99515,61.1433,-149.86588
